"","longitude","latitude","objectid","gis_id","name","web_url","religion","address","addrid","xcoord","ycoord"
"1",-77.090972767754,38.9420193634036,1,"pow_1","Sixth Church of Christ, Scientist","http://6thchurchdc.org/","CHRISTIAN","4601 MASSACHUSETTS AVENUE NW",267352,392113.52,141572.87
"2",-76.9349559429129,38.9064400128771,2,"pow_2","Seventh Church of Christ, Scientist","http://adherentsoftruth.org/","CHRISTIAN","1204 47TH PLACE NE",303219,405641.86,137621.34
"3",-77.0267933943218,38.9179226624879,11,"pow_12","Christian Tabernacle Church","http://ctcoginc.org/","CHRISTIAN","2033 11TH STREET NW",239193,397676.62,138894.34
"4",-77.0369349075715,38.9841079246055,101,"pow_152","Ohev Sholom The National Synagogue","http://www.ostt.org/","JEWISH","1600 JONQUIL STREET NW",256412,396800.1,146241.81
"5",-77.1058334018329,38.9299640085824,102,"pow_153","Palisades Community Church","http://thepalisadescommunitychurch.org/","CHRISTIAN","5200 CATHEDRAL AVENUE NW",224233,390823.66,140236.01
"6",-77.0003185430366,38.8321955050481,103,"pow_154","Paramount Baptist","http://www.paramountbaptistchurch.org","CHRISTIAN","3924 4TH STREET SE",29051,399972.54,129377.64
"7",-77.0564383725111,38.9074770218995,104,"pow_155","Epiphany Catholic Church","http://georgetownepiphany.org/","CHRISTIAN","2712 DUMBARTON STREET NW",274465,395105.03,137735.96
"8",-77.0201966029312,38.943683069643,105,"pow_156","St. Gabriel's Catholic Church","http://www.stgabrieldc.org/","CHRISTIAN","26 GRANT CIRCLE NW",247495,398249.34,141753.82
"9",-76.9860843773863,38.8895218355726,106,"pow_157","Holy Comforter - Saint Cyprian Roman Catholic Church","http://hcsc.catholicws.com/","CHRISTIAN","1357 EAST CAPITOL STREET SE",286095,401207.47,135741.37
"10",-76.9917715155559,38.9018472622891,107,"pow_158","Holy Name of Jesus","http://holynameparishdc.org/","CHRISTIAN","920 11TH STREET NE",82493,400713.95,137109.53
"11",-77.0138749840873,38.9054170989728,108,"pow_159","Holy Redeemer Catholic Church","http://www.holyredeemerchurchdc.org/","CHRISTIAN","206 NEW YORK AVENUE NW",279528,398796.72,137505.87
"12",-76.9205486233718,38.9012967906606,109,"pow_160","The Church Of The Incarnation","http://www.josephites.org/parish/dc/ic/","CHRISTIAN","880 EASTERN AVENUE NE",289041,406891.99,137051.39
"13",-77.0947368299719,38.9163843790134,110,"pow_161","Our Lady Of Victory Church","http://www.olvparishdc.org/","CHRISTIAN","4835 MACARTHUR BOULEVARD NW",284983,391784.25,138727.5
"14",-76.9586212653166,38.8626070678583,12,"pow_14","East Washington Heights Baptist","http://ewhbc.org","CHRISTIAN","2220 BRANCH AVENUE SE",50755,403591.43,132754.35
"15",-77.0037630597419,38.8856274700694,111,"pow_162","St Peter's Catholic Church","http://saintpetersdc.org/","CHRISTIAN","313 2ND STREET SE",289156,399673.71,135308.98
"16",-77.0492699654528,38.9158233413651,112,"pow_163","Our Lady Queen Of The Americas","http://www.ourladyqueenoftheamericasdc.org/","CHRISTIAN","2200 CALIFORNIA STREET NW",235042,395727.28,138662.11
"17",-76.9476432930182,38.8830362454538,113,"pow_164","Our Lady Queen of Peace Parish","http://www.olqpdc.org/","CHRISTIAN","3800 ELY PLACE SE",288020,404542.9,135022.63
"18",-77.0530441281685,38.90315334156,114,"pow_165","St Stephen Martyr Catholic Church","http://www.ststephenmartyrdc.org/","CHRISTIAN","2436 PENNSYLVANIA AVENUE NW",273953,395399.15,137255.82
"19",-76.9675122003043,38.872527510746,115,"pow_166","St Frances Xavier Catholic Church","","CHRISTIAN","2800 PENNSYLVANIA AVENUE SE",44697,402819.4,133855.28
"20",-76.9307007624894,38.8893192383469,116,"pow_167","St. Luke Roman Catholic Church","http://www.josephites.org/parish/dc/sl/","CHRISTIAN","4925 EAST CAPITOL STREET SE",288338,406012.38,135721.07
"21",-76.9999573661734,38.825099264651,117,"pow_168","St Thomas Moore Church","http://www.thomasmoredc.org/","CHRISTIAN","4275 4TH STREET SE",276628,400003.9,128589.91
"22",-77.0083742002296,38.8766593779037,118,"pow_169","St Vincent DePaul Church","http://stvincentdepauldc.org/","CHRISTIAN","14 M STREET SE",301422,399273.55,134313.48
"23",-77.0751373301265,38.9684271882059,119,"pow_170","Shrine of the Most Blessed Sacrament","http://www.blessedsacramentdc.org/","CHRISTIAN","3630 QUESADA STREET NW",301240,393488.75,144503.13
"24",-77.022597465513,38.9077504313828,120,"pow_171","Immaculate Conception Church","http://www.immaculateconceptionchurchdc.org/","CHRISTIAN","1315 8TH STREET NW",238403,398040.22,137765.04
"25",-76.9565153370677,38.8857191596675,13,"pow_15","First Baptist Church - Minnesota Avenue","http://fbc-dc.org/","CHRISTIAN","3440 MINNESOTA AVENUE SE",34531,403772.98,135320.05
"26",-77.0301334375926,38.9472686597993,121,"pow_172","People's Congregational United Church of Christ","http://peopleschurchucc.org/","CHRISTIAN","4704 13TH STREET NW",284954,397388.04,142152.09
"27",-76.9802942840976,38.8973989128846,122,"pow_173","Pilgrim AME Church","","CHRISTIAN","612 17TH STREET NE",4642,401709.61,136615.88
"28",-77.008726887747,38.9551819331778,123,"pow_174","Plymouth Congregational United Church of Christ","http://www.plymouth-ucc.org/","CHRISTIAN","5301 NORTH CAPITOL STREET NE",156413,399243.78,143030.14
"29",-77.061986039411,38.9082123544325,124,"pow_71","Christ Church Georgetown","http://www.christchurchgeorgetown.org/","CHRISTIAN","3116 O STREET NW",277254,394623.91,137817.9
"30",-76.9943869372463,38.8877972448342,125,"pow_73","Christ Our Shepherd Church","http://www.christourshepherd.org/","CHRISTIAN","801 NORTH CAROLINA AVENUE SE",79626,400487.18,135549.85
"31",-76.9998501418315,38.8852925989644,126,"pow_74","Capitol Hill United Methodist","http://www.chumc.net/","CHRISTIAN","421 SEWARD SQUARE SE",25345,400013.2,135271.8
"32",-77.0493223299953,38.9103430053921,127,"pow_75","Church of the Pilgrims","http://www.churchofthepilgrims.org/","CHRISTIAN","2201 P STREET NW",301069,395722.41,138053.75
"33",-77.0824491243484,38.9482254606359,128,"pow_77","St Columba's Episcopal","http://www.columba.org/","CHRISTIAN","4201 ALBEMARLE STREET NW",301545,392853.08,142261.1
"34",-77.0666843797537,38.9323220021491,129,"pow_78","Cleveland Park United","http://www.cpcchurch.org/","CHRISTIAN","3400 LOWELL STREET NW",221258,394218.36,140494.56
"35",-77.0167290096089,38.8788923817612,130,"pow_79","Christ United Methodist Church","http://www.cumcdc.org/welcome","CHRISTIAN","900 4TH STREET SW",276853,398548.63,134561.46
"36",-77.0556561757961,38.90757117406,14,"pow_16","First Baptist Church-Georgetown","http://firstbaptistgtown.org/","CHRISTIAN","2624 DUMBARTON STREET NW",275975,395172.88,137746.37
"37",-77.0048928669123,38.9618271905255,131,"pow_80","DC Christian Reformed Church","http://www.dccrcsandbox.org/","CHRISTIAN","5911 NEW HAMPSHIRE AVENUE NE",52221,399576.14,143767.8
"38",-77.036751645744,38.9432051107525,132,"pow_81","Grace Evangelical Lutheran Church","http://graceelcadc.org/site/cs/Index.asp","CHRISTIAN","4300 16TH STREET NW",258561,396814.15,141701.21
"39",-77.0625255777352,38.9078997474639,133,"pow_82","Dumbarton United Methodist","http://www.dumbartonumc.org","CHRISTIAN","3133 DUMBARTON STREET NW",275439,394577.09,137783.23
"40",-76.947043281664,38.8716944023608,134,"pow_83","Dupont Park Seventh-Day","http://www.dupontpark.org/","CHRISTIAN","3985 MASSACHUSETTS AVENUE SE",28463,404595.69,133763.63
"41",-76.9273472976501,38.889386114819,135,"pow_84","Episcopal Church of the Atonement","http://www.atonementepiscopalchurch.org/site/index.php","CHRISTIAN","5073 EAST CAPITOL STREET SE",13894,406303.31,135728.72
"42",-77.0202665470132,38.8760683197948,136,"pow_85","St Augustine's Episcopal","http://www.staugustinesdc.org/","CHRISTIAN","600 M STREET SW",276679,398241.61,134248.03
"43",-77.028247336462,38.9641745842468,137,"pow_86","The Emory Fellowship United Methodist Church","http://emoryfellowship.org/","CHRISTIAN","6100 GEORGIA AVENUE NW",253200,397552.12,144028.75
"44",-77.0304722323534,38.8986651575189,138,"pow_87","Church Of The Epiphany","http://www.epiphanydc.org/","CHRISTIAN","1317 G STREET NW",279048,397356.87,136756.7
"45",-77.0368895832447,38.9852899968196,139,"pow_88","Washington Ethical Society","http://www.ethicalsociety.org/","CHRISTIAN","7750 16TH STREET NW",256418,396804.08,146373.03
"46",-77.0368895832447,38.9852899968196,140,"pow_89","Fabrangen's","http://www.fabrangen.org","JEWISH","7750 16TH STREET NW",256418,396804.08,146373.03
"47",-76.9840583826391,38.8461009468864,15,"pow_17","Freedom Chapel Church","http://freedom-chapel.com/index.php?pr=Home_Page","CHRISTIAN","1430 ALABAMA AVENUE SE",63788,401384.08,130921.36
"48",-77.0083616472446,38.8295368076974,141,"pow_90","Faith United Presbyterian","http://www.faithpchurch.org/","CHRISTIAN","4161 SOUTH CAPITOL STREET SW",25915,399274.16,129082.54
"49",-77.0373790540508,38.9084648727362,142,"pow_91","First Baptist Church of the City of Washington DC","http://www.firstbaptistdc.org","CHRISTIAN","1328 16TH STREET NW",279074,396758.18,137844.77
"50",-77.0373790540508,38.9084648727362,143,"pow_92","Buenas Nuevas De Salvacion, Iglesia Bautista","","CHRISTIAN","1328 16TH STREET NW",279074,396758.18,137844.77
"51",-77.0204435547518,38.9070183593373,144,"pow_93","First Rising Mt Zion Baptist","http://www.firstrising.org","CHRISTIAN","602 N STREET NW",296144,398227.02,137683.73
"52",-77.0236049474305,38.9395675337518,145,"pow_94","First Church of Seventh Day Adventist","http://www.firstsdachurch.org","CHRISTIAN","810 SHEPHERD STREET NW",252544,397953.75,141297.03
"53",-77.0158615112881,38.8963930828784,146,"pow_95","First Trinity Lutheran Church","http://www.firsttrinitydc.org/","CHRISTIAN","501 4TH STREET NW",242842,398624.24,136504.16
"54",-77.0239141045301,38.9355307624522,147,"pow_96","Fisherman Of Men","http://www.fishermanofmenchurch.org/","CHRISTIAN","3641 GEORGIA AVENUE NW",228340,397926.83,140848.92
"55",-77.020837418278,38.9161685127583,148,"pow_97","Florida Avenue Baptist","http://www.flavbc.org","CHRISTIAN","623 FLORIDA AVENUE NW",229855,398193.09,138699.48
"56",-77.0368817921228,38.9100414012351,149,"pow_98","Foundry United Methodist","http://www.foundryumc.org/","CHRISTIAN","1500 16TH STREET NW",243309,396801.38,138019.76
"57",-77.0356094903689,38.9172276576564,150,"pow_99","Freedom Baptist","","CHRISTIAN","1519 U STREET NW",242058,396912.04,138817.45
"58",-77.0170748307069,38.9528952536486,16,"pow_18","Gethsemane Baptist","http://gethsemanebaptistchurch.org/","CHRISTIAN","5119 4TH STREET NW",243737,398520.16,142776.4
"59",-76.9880035143693,38.8903599175018,151,"pow_101","Lincoln Park United Methodist","http://www.lpumcdc.org/","CHRISTIAN","1301 NORTH CAROLINA AVENUE NE",68827,401040.96,135834.38
"60",-76.9597140528483,38.8682766258999,152,"pow_102","Ryland Epworth United Methodist","","CHRISTIAN","3200 S STREET SE",38824,403496.31,133383.67
"61",-77.0337540667895,38.9550442437553,153,"pow_104","Star of Bethlem Church","http://www.starofbethlehemcogic.com/","CHRISTIAN","5331 COLORADO AVENUE NW",255845,397074.5,143015.36
"62",-77.0614293075415,38.9070411125695,154,"pow_105","Georgetown Baptist Church","http://www.georgetowndc.com/explore/services/georgetown-baptist-church-3101-n-st-nw/","CHRISTIAN","3101 N STREET NW",223424,394672.11,137687.85
"63",-77.0299617677119,38.9505225842417,155,"pow_213","Maranatha Gospel Hall","","CHRISTIAN","4910 13TH STREET NW",255098,397403.04,142513.3
"64",-76.9323126477837,38.8906310827862,156,"pow_214","Ship of Salvation Church","","CHRISTIAN","4914 CENTRAL AVENUE NE",303272,405872.43,135866.59
"65",-76.9313796675112,38.8920800763314,157,"pow_215","New Beginning Evangelististic Church","http://www.nbwotc.org/tp50/Default.asp?ID=32951","CHRISTIAN","4928 BLAINE STREET NE",15909,405953.25,136027.5
"66",-77.0191460041961,38.9098764772073,158,"pow_216","Hemingway Temple AME Church","","CHRISTIAN","501 P STREET NW",238838,398339.63,138000.98
"67",-76.9290249509487,38.8888333110018,159,"pow_217","The Leading Commandment Church of God","","CHRISTIAN","5023 CENTRAL AVENUE SE",14736,406157.81,135667.24
"68",-76.9288829809139,38.8900700752114,160,"pow_218","East Capitol Church of Christ","","CHRISTIAN","5026 EAST CAPITOL STREET NE",150899,406170.02,135804.54
"69",-77.0300284932065,38.9539161636434,17,"pow_19","Greater New St Paul Baptist","http://greaternewstpaul.org","CHRISTIAN","1300 INGRAHAM STREET NW",254969,397397.38,142890.02
"70",-76.9276429145622,38.9038573415245,161,"pow_219","Little Rock Church Of Christ Bibleway","","CHRISTIAN","5030 SHERIFF ROAD NE",14639,406276.39,137335.12
"71",-76.998924343648,38.9035641792928,162,"pow_220","Enon Baptist","","CHRISTIAN","505 L STREET NE",14239,400093.5,137300.09
"72",-76.9287370408168,38.8848904362838,163,"pow_221","The Greater New Highway Christian Church of Christ","","CHRISTIAN","5057 C STREET SE",14124,406183.13,135229.57
"73",-77.0195738386093,38.9093246451854,164,"pow_222","Springfield Baptist","http://www.springfielddc.org/about-us/","CHRISTIAN","508 P STREET NW",279812,398302.51,137939.73
"74",-76.9273855082459,38.8871773734304,165,"pow_223","St Lucille AME Zion","","CHRISTIAN","5100 ASTOR PLACE SE",13513,406300.19,135483.53
"75",-77.0299794262074,38.9176267755262,166,"pow_583","Walker Memorial Baptist","http://www.wmbcdc.org/","CHRISTIAN","2020 13TH STREET NW",240352,397400.31,138861.58
"76",-77.0369294596058,38.9177074821336,167,"pow_584","Trinity Religious Temple Church","","CHRISTIAN","2024 16TH STREET NW",241835,396797.59,138870.76
"77",-77.0142505100662,38.9424651244329,168,"pow_586","St Mary Eritrean Orthodox Tewando Chruch","","CHRISTIAN","211 UPSHUR STREET NW",244386,398764.79,141618.52
"78",-77.0144236371625,38.9423950187037,169,"pow_587","Emanuel Faith Tabernacle","","CHRISTIAN","215 UPSHUR STREET NW",244383,398749.78,141610.74
"79",-76.9718569588997,38.8565659052793,170,"pow_588","Emmanuel Baptist","http://emmanuelbaptistdc.org/","CHRISTIAN","2409 AINGER PLACE SE",150401,402442.92,132083.3
"80",-76.9996073884863,38.9309872575331,18,"pow_20","Kidane Mehret Ge'ez Rite Catholic Church","http://kidane-mehret.org/","CHRISTIAN","415 MICHIGAN AVENUE NE",302303,400034.24,140344.28
"81",-76.9705147171671,38.8563454981341,171,"pow_589","Kingdom Hall Jehovah's Witness","","CHRISTIAN","2430 AINGER PLACE SE",47171,402559.43,132058.87
"82",-77.1003332995938,38.9300515561513,172,"pow_591","Kingdom Hall Jehovahs Witness","","CHRISTIAN","2950 ARIZONA AVENUE NW",268661,391300.57,140245.19
"83",-76.9857232991932,38.9290370781042,173,"pow_592","Brookland Union Baptist","http://brooklandunionbaptist.org/","CHRISTIAN","3101 14TH STREET NE",40723,401238.11,140127.89
"84",-76.9995857494274,38.8436797536073,174,"pow_593","Masjid Ush-Shura","","ISLAM","3109 MARTIN LUTHER KING JR AVENUE SE",40480,400036.16,130652.47
"85",-77.0191325695315,38.9006271540235,175,"pow_595","Chinesse Community Church","http://www.cccdc.com/","CHRISTIAN","500 I STREET NW",238945,398340.58,136974.23
"86",-76.9292936629704,38.8876381517877,176,"pow_596","Masjid Al- Islam","","ISLAM","5021 A STREET SE",288430,406134.6,135534.55
"87",-77.0330669813437,38.952695713881,177,"pow_597","Kingdom Hall of Jehovah's Witnesses","","CHRISTIAN","5113 14TH STREET NW",255043,397133.96,142754.63
"88",-77.0210807974152,38.9566119517822,178,"pow_598","Masjid-ul Allah","","ISLAM","531 KENNEDY STREET NW",246689,398173.02,143189.06
"89",-77.0125002261752,38.8789266024062,179,"pow_599","Friendship Baptist Church","http://www.friendshipbaptistdc.org/","CHRISTIAN","900 DELAWARE AVENUE SW",276854,398915.56,134565.2
"90",-76.971455835964,38.9307899142355,180,"pow_600","Jehovah's Witnesses Hall","","CHRISTIAN","3126 SOUTH DAKOTA AVENUE NE",39911,402475.16,140322.76
"91",-76.9987368583608,38.9051178481069,19,"pow_22","Mount Olive Baptist","http://mtobc1140.org/","CHRISTIAN","1140 6TH STREET NE",156299,400109.76,137472.56
"92",-76.9693825941876,38.8744713086858,181,"pow_601","Emanuel Church of God in Christ","http://www.emmanuelchurch-dc.org/","CHRISTIAN","2600 MINNESOTA AVENUE SE",46158,402657.02,134071
"93",-77.0292698430511,38.9250221602655,182,"pow_602","Greater First Baptist","http://www.greaterfirstbaptist.org/","CHRISTIAN","2701 13TH STREET NW",231841,397462.11,139682.51
"94",-76.9589721376242,38.8822118223276,183,"pow_603","Potomac Baptist","","CHRISTIAN","3340 MINNESOTA AVENUE SE",35813,403560,134930.61
"95",-76.9697949889834,38.9369451415971,184,"pow_605","Sharon Baptist","http://www.sharonbaptistchurchofwashingtondc.com/","CHRISTIAN","3825 26TH STREET NE",29943,402618.94,141006.09
"96",-77.0378050408433,38.940164116116,185,"pow_606","Russian Orothodox-of St John The Baptist","http://www.stjohndc.org/","CHRISTIAN","4001 17TH STREET NW",258332,396722.69,141363.67
"97",-76.9423827964687,38.8706774889665,186,"pow_607","New Macedonia Baptist","http://www.tnmbc.org/","CHRISTIAN","4115 ALABAMA AVENUE SE",26681,405000.19,133650.99
"98",-76.9510312130433,38.8912476841726,187,"pow_608","St Judah Spiritual Baptist","","CHRISTIAN","43 ANACOSTIA ROAD NE",24092,404248.46,135934
"99",-76.9375918898296,38.9012812840106,188,"pow_609","New Bible Baptist","","CHRISTIAN","4421 JAY STREET NE",21682,405413.62,137048.52
"100",-76.9359794291546,38.9025465364556,189,"pow_610","Pilgrim Rest Baptist","http://www.pilgrimrestbaptistdc.org/","CHRISTIAN","4611 SHERIFF ROAD NE",19329,405553.39,137189.07
"101",-76.999259241828,38.8825177436119,190,"pow_611","Progress For Christ Baptist","http://www.progressforchrist.org/","CHRISTIAN","501 E STREET SE",15241,400064.47,134963.77
"102",-77.0846975928536,38.9403501573021,20,"pow_23","Temple Baptist Church","http://netministries.org/see/churches.exe/ch03651","CHRISTIAN","3850 NEBRASKA AVENUE NW",268251,392657.36,141387.05
"103",-76.9287329762629,38.8824977156065,191,"pow_613","Good Samaritan Baptist","","CHRISTIAN","5100 E STREET SE",13524,406183.69,134963.96
"104",-77.0331403288885,38.9521435760874,192,"pow_614","Mt Zion Baptist","","CHRISTIAN","5101 14TH STREET NW",255034,397127.58,142693.34
"105",-77.0003262587673,38.8821110167502,193,"pow_615","Mount Joy Baptist","","CHRISTIAN","514 4TH STREET SE",277597,399971.89,134918.62
"106",-76.9506920982163,38.891409962533,194,"pow_616","Upper Room Baptist","","CHRISTIAN","60 BURNS STREET NE",288747,404277.87,135952.03
"107",-77.0222325459873,38.9683662492094,195,"pow_617","St Marks Baptist","http://stmarksmbc.net/","CHRISTIAN","624 UNDERWOOD STREET NW",251442,398073.51,144493.92
"108",-77.0293132643487,38.9672462247955,196,"pow_618","St John United Baptist Church","","CHRISTIAN","6343 13TH STREET NW",253260,397459.85,144369.76
"109",-76.9959602960078,38.9015374144826,197,"pow_619","Pilgrim Baptist","http://www.pilgrimbaptistdc.org/","CHRISTIAN","700 I STREET NE",289,400350.61,137075.11
"110",-77.0116640906419,38.916213659267,198,"pow_620","Mt Bethel Baptist","","CHRISTIAN","75 RHODE ISLAND AVENUE NW",227379,398988.64,138704.35
"111",-76.9911784335377,38.8799241676836,199,"pow_621","New Hope Freewill Baptist","","CHRISTIAN","754 11TH STREET SE",79010,400765.63,134675.9
"112",-77.0492699654528,38.9158233413651,200,"pow_622","Portuguese Catholic Community","","CHRISTIAN","2200 CALIFORNIA STREET NW",235042,395727.28,138662.11
"113",-76.9339941157214,38.9117356613468,3,"pow_3","Bethel Commandment Church of Living God","http://bethelcommandmentchurchofthelivinggod.org","CHRISTIAN","1627 KENILWORTH AVENUE NE",150101,405724.86,138209.26
"114",-76.9640533442542,38.926521084294,21,"pow_24","New Canaan Baptist Church","http://newcanaanbaptistchurch.org/","CHRISTIAN","2826 BLADENSBURG ROAD NE",301514,403117.19,139849.11
"115",-76.926990120414,38.8987073958745,201,"pow_224","Holy Christian House of Praise for all people","http://www.hchouseofpraise.org/","CHRISTIAN","5110 NANNIE HELEN BURROUGHS AVENUE NE",288501,406333.47,136763.48
"116",-76.9268730282778,38.8864178270896,202,"pow_225","Mentrotone Baptist Church","","CHRISTIAN","5126 B STREET SE",288519,406344.72,135399.25
"117",-76.9180444884148,38.8964227060591,203,"pow_226","Holy Truth Church of God in Christ Jesus Apostolic Inc.","","CHRISTIAN","514 58TH STREET NE",12642,407109.69,136510.52
"118",-76.9276757114135,38.8906129896071,204,"pow_228","Capital View Baptist Church","","CHRISTIAN","5201 AMES STREET NE",301932,406274.71,135864.89
"119",-76.9245960749881,38.9040777410838,205,"pow_230","Prayer Base Christian Training","","CHRISTIAN","5210 SHERIFF ROAD NE",11735,406540.65,137359.8
"120",-76.9263967583364,38.887326654074,206,"pow_231","Apostolic Faith Church of God Inc.","","CHRISTIAN","5211 A STREET SE",11741,406385.96,135500.17
"121",-76.9264978919377,38.8842579210312,207,"pow_232","St John Baptist (Marshall Heights)","","CHRISTIAN","5228 CALL PLACE SE",11347,406377.46,135159.51
"122",-76.9839085899955,38.8994319334448,208,"pow_233","Bethlehem Fire Baptized Holiness Church","http://www.fbhchurch.org/bethlehem.html","CHRISTIAN","712 15TH STREET NE",288893,401396.04,136841.5
"123",-76.9842795788013,38.8821013114579,209,"pow_234","Liberty Baptist","","CHRISTIAN","527 KENTUCKY AVENUE SE",11036,401364.19,134917.66
"124",-76.9251045066226,38.8894652332456,210,"pow_235","Christ Centered Missionary Baptist Church","","CHRISTIAN","5325 EAST CAPITOL STREET SE",288610,406497.88,135737.66
"125",-77.024156827559,38.9421426215394,22,"pow_25","New Solid Rock Church Ministries","http://nsrcm.org/","CHRISTIAN","819 UPSHUR STREET NW",252471,397905.98,141582.9
"126",-77.0264381716468,38.9444953629106,211,"pow_236","Christ Apostolic Church","http://www.cacgeorgiaavenue.org/","CHRISTIAN","4408 GEORGIA AVENUE NW",252657,397708.28,141844.13
"127",-77.0042305465565,38.9555282800261,212,"pow_237","Dominion Church","http://dominionchurchofwashington.com/","CHRISTIAN","5335 1ST PLACE NE",10010,399633.51,143068.56
"128",-76.9238255145396,38.8832147488619,213,"pow_238","First National Baptist","","CHRISTIAN","5400 D STREET SE",9412,406609.42,135043.9
"129",-77.0357932792524,38.9553343340046,214,"pow_239","Buddhist Congregational","http://www.giachoangtemple.com/","BUDDHIST","5401 16TH STREET NW",255872,396897.76,143047.63
"130",-76.9187190323063,38.8860475078534,215,"pow_240","True Believers Pentecostal Glarious Church of God","http://www.truebelieversdc.org/","CHRISTIAN","5670 CENTRAL AVENUE SE",288700,407052.2,135358.74
"131",-77.0781825119746,38.9662952815247,216,"pow_241","Brazilian Baptist Church","http://www.ibbwdc.org/","CHRISTIAN","5671 WESTERN AVENUE NW",264763,393224.65,144266.69
"132",-77.0360446208766,38.959108269059,217,"pow_242","Bahai Faith Washington Center","http://www.dcbahai.org/","CHRISTIAN","5713 16TH STREET NW",255981,396876.14,143466.58
"133",-77.0063592575885,38.9618427943066,218,"pow_244","Mt Calvary Holy Church-Deliverance","","CHRISTIAN","5900 CHILLUM PLACE NE",288734,399449.05,143769.54
"134",-77.0286105729723,38.9590065494561,219,"pow_245","New Redeemer Baptist","","CHRISTIAN","5714 GEORGIA AVENUE NW",253133,397520.46,143455.06
"135",-76.9167693363881,38.8947142677651,220,"pow_247","Beulah Baptist","http://www.beulahbaptistchurch.org/","CHRISTIAN","5820 DIX STREET NE",151038,407220.48,136320.97
"136",-76.9780066711001,38.898280783814,23,"pow_26","Peace Baptist Church","http://pbc712.org/","CHRISTIAN","712 18TH STREET NE",288889,401908.03,136713.82
"137",-76.9249633471709,38.8987428657906,221,"pow_248","Macedonia Holy Church On-Rock","","CHRISTIAN","707 DIVISION AVENUE NE",76617,406509.28,136767.56
"138",-77.0360409493216,38.9500225302186,222,"pow_249","The Church of Jesus Christ of Latter Day Saints-Mount Pleasant (Spanish) Branch","","CHRISTIAN","4901 16TH STREET NW",255779,396876.06,142457.98
"139",-76.9974457878949,38.9613082995184,223,"pow_250","Bethlehem Church of God","","CHRISTIAN","5898 EASTERN AVENUE NE",6171,400221.57,143710.19
"140",-77.007398864104,38.9630970424368,224,"pow_251","Riggs Park Baptist","","CHRISTIAN","5998 CHILLUM PLACE NE",285291,399358.96,143908.78
"141",-77.0112259452588,38.8790231216789,225,"pow_252","Bethel Pentecostal Tabernacle","","CHRISTIAN","60 I STREET SW",276677,399026.13,134575.9
"142",-76.9290894559825,38.8966466738433,226,"pow_253","Progressive National Baptist Conventino, Inc.","http://www.pnbc.org/","CHRISTIAN","601 50TH STREET NE",289784,406151.54,136534.58
"143",-77.0213178876896,38.9566042517642,227,"pow_254","Mount Carmel Miracle Temple of God","","CHRISTIAN","607 KENNEDY STREET NW",246733,398152.47,143188.21
"144",-77.0206926315854,38.913923030591,228,"pow_255","New Community Church","http://www.newcommunitychurchdc.org/","CHRISTIAN","614 S STREET NW",279855,398205.59,138450.21
"145",-76.9818430251478,38.8979129108533,229,"pow_256","United Pentecostal Assembly Inc.","","CHRISTIAN","619 16TH STREET NE",3999,401575.25,136672.91
"146",-77.0164147271908,38.9655455577196,230,"pow_258","God's Shepherd For Salavation","","CHRISTIAN","6216 3RD STREET NW",285581,398577.63,144180.69
"147",-77.0187044650699,38.8995236992139,24,"pow_27","Saint Mary Mother of God Shrine of Our Lady of Miraculous Medal","http://saintmarymotherofgod.org/","CHRISTIAN","727 5TH STREET NW",279915,398377.69,136851.73
"148",-76.9115099811466,38.894159540139,231,"pow_259","Lighthouse Full Gospel Mission Church","","CHRISTIAN","6217 DIX STREET NE",3461,407676.79,136259.82
"149",-77.0227851248753,38.9332479235778,232,"pow_260","New Commandment Baptist","","CHRISTIAN","625 PARK ROAD NW",228789,398024.65,140595.48
"150",-77.0008359802077,38.8980929544103,233,"pow_261","United Triumphant Church","","CHRISTIAN","626 4TH STREET NE",3157,399927.68,136692.74
"151",-76.9917865740867,38.8982217586733,234,"pow_262","Full Gospel Tabernacle Church","","CHRISTIAN","632 11TH STREET NE",151089,400712.68,136707.07
"152",-77.0266571888493,38.9684491909443,235,"pow_263","New Bethel Church Of God In Christ","","CHRISTIAN","6440 PINEY BRANCH ROAD NW",254030,397690.07,144503.23
"153",-76.991274789533,38.8987183526199,236,"pow_264","People's Community Church","","CHRISTIAN","653 11TH STREET NE",1325,400757.07,136762.2
"154",-77.0177400971164,38.9739833836762,237,"pow_265","Iglesia Pentecostes Aposento Alto","","CHRISTIAN","6905 4TH STREET NW",249129,398462.95,145117.39
"155",-76.9833564085306,38.8988747789969,238,"pow_267","The New Solid Rock Perfecting Church Inc","","CHRISTIAN","701 15TH STREET NE",327,401443.95,136779.66
"156",-77.0226172087133,38.9551015188988,239,"pow_268","Christ Memorial Baptist","","CHRISTIAN","702 JEFFERSON STREET NW",250210,398039.81,143021.42
"157",-77.022713662841,38.9761108082047,240,"pow_269","Christian Conquest Word Of God","","CHRISTIAN","7101 7TH STREET NW",300069,398032.03,145353.65
"158",-77.0330335636785,38.9500412551172,25,"pow_28","St Paul AME","","CHRISTIAN","4901 14TH STREET NW",255112,397136.75,142459.96
"159",-77.0261032338668,38.9777081604421,241,"pow_270","New Second Baptist","","CHRISTIAN","7205 GEORGIA AVENUE NW",254723,397738.37,145531.05
"160",-77.0229952479958,38.9439180291896,242,"pow_273","Moorish Science Temple 71","","CHRISTIAN","732 WEBSTER STREET NW",249840,398006.73,141779.96
"161",-76.9298426617644,38.8993542327281,243,"pow_274","Little Mount Zion Fire Baptized Holiness Church","http://www.fbhchurch.org/littlemtzion.html","CHRISTIAN","736 50TH STREET NE",78462,406085.97,136835.09
"162",-77.0232796799577,38.9459501519711,244,"pow_275","New Southern Rock Baptist","http://www.newsouthernrockbaptistchurch.org/aboutourpastor.html","CHRISTIAN","750 BUCHANAN STREET NW",285402,397982.13,142005.55
"163",-76.9464841799,38.9008596002333,245,"pow_276","Bethesda New Life Gospel Church","http://www.bnlgchurch.org/","CHRISTIAN","750 KENILWORTH AVENUE NE",78861,404642.31,137001.22
"164",-77.0292400645922,38.9862667578685,246,"pow_277","Ethiopian Evangelical Church","http://www.eecdc.org/","CHRISTIAN","7930 EASTERN AVENUE NW",253649,397466.87,146481.22
"165",-76.9432583809927,38.8777391541617,247,"pow_278","Johnson Memorial Baptist","","CHRISTIAN","800 RIDGE ROAD SE",289024,404923.72,134434.84
"166",-76.9944984525875,38.8975282738074,248,"pow_279","Galatians Baptist","","CHRISTIAN","806 F STREET NE",151157,400477.44,136630.07
"167",-77.0236706954178,38.908305313237,249,"pow_280","Scripture Cathedral","http://www.scripturecathedral.com/","CHRISTIAN","810 O STREET NW",279953,397947.15,137826.66
"168",-76.9830030699853,38.9013149127656,250,"pow_281","Christian Love Baptist","","CHRISTIAN","818 BLADENSBURG ROAD NE",80503,401474.55,137050.54
"169",-77.0799807159502,38.9465351494945,26,"pow_30","St. Ann's Catholic Church","http://stanndc.org/","CHRISTIAN","4001 YUMA STREET NW",295145,393066.89,142073.27
"170",-77.025167764662,38.9565433111454,251,"pow_282","United Holiness Deliverance Church Of God","","CHRISTIAN","825 KENNEDY STREET NW",254484,397818.78,143181.53
"171",-76.9934630369047,38.9011841738463,252,"pow_283","Trinity Holy Tabernacle","","CHRISTIAN","829 9TH STREET NE",81023,400567.23,137035.91
"172",-77.0247441136255,38.9399279001566,253,"pow_284","Zion Hill Baptist","","CHRISTIAN","841 SHEPHERD STREET NW",301935,397855,141337.06
"173",-77.0259023456918,38.9543171178392,254,"pow_285","Gideon Baptist","","CHRISTIAN","901 INGRAHAM STREET NW",254659,397755.04,142934.42
"174",-77.0262651924599,38.9652982850661,255,"pow_286","Exodus Missionary Baptist","","CHRISTIAN","901 RITTENHOUSE STREET NW",254177,397723.94,144153.44
"175",-76.9239463429293,38.9019909841123,256,"pow_287","Contee AME Zion","","CHRISTIAN","903 DIVISION AVENUE NE",81767,406597.2,137128.2
"176",-77.0258054657216,38.944205077152,257,"pow_288","First Mystery Church Of God","","CHRISTIAN","909 WEBSTER STREET NW",252342,397763.12,141811.89
"177",-77.0271803584506,38.9647642470124,258,"pow_290","Brotherhood of the Cross-Star","","CHRISTIAN","916 RITTENHOUSE STREET NW",254264,397644.61,144094.18
"178",-77.0249860711927,38.9075637423854,259,"pow_291","Salem Baptist Church","http://salembaptistchurchdc.org/","CHRISTIAN","917 N STREET NW",239733,397833.04,137744.37
"179",-76.9319726103394,38.9024786011866,260,"pow_293","New Birth Missionary Baptist","","CHRISTIAN","930 49TH STREET NE",82763,405900.95,137181.78
"180",-77.0547807896284,38.9260906512615,27,"pow_31","St Thomas Apostle Catholic","http://stthomasapostledc.org/","CHRISTIAN","2665 WOODLEY ROAD NW",220014,395250.04,139802.14
"181",-77.0257363450624,38.9128272450283,261,"pow_294","Way Back To Pentecost","","CHRISTIAN","945 R STREET NW",239702,397768.13,138328.68
"182",-77.0312155570436,38.8999835151817,262,"pow_295","Downtown Clusters Congregation","http://www.downtowncluster.org/","CHRISTIAN","1313 NEW YORK AVENUE NW",279043,397292.44,136903.07
"183",-76.9877159091877,38.9004938508732,263,"pow_296","United House of Prayer - H Street","","CHRISTIAN","1314 H STREET NE",68276,401065.76,136959.33
"184",-77.0317605609899,38.9506191284964,264,"pow_297","Macedonia Church of God in Christ","http://www.cogicdcjurisdiction.org/#!local-churches/c1w6k","CHRISTIAN","1320 FARRAGUT STREET NW",255088,397247.12,142524.07
"185",-76.9865561521178,38.8663001395001,265,"pow_298","Anacostia Full Gospel","","CHRISTIAN","1320 U STREET SE",67782,401166.92,133163.58
"186",-77.0368895832447,38.9852899968196,266,"pow_299","National Spiritual Science Center","","CHRISTIAN","7750 16TH STREET NW",256418,396804.08,146373.03
"187",-76.9872780195076,38.8981646020768,267,"pow_300","Purity Baptist","","CHRISTIAN","1325 MARYLAND AVENUE NE",67591,401103.78,136700.77
"188",-76.9872944797107,38.8918297390325,268,"pow_301","Evening Light Apostolic Church","http://www.thelordslight.com/","CHRISTIAN","1327 CONSTITUTION AVENUE NE",67449,401102.45,135997.55
"189",-77.0583807073351,38.9080108931784,269,"pow_302","Mount Zion UMC","http://www.mtzionumcdc.org","CHRISTIAN","1334 29TH STREET NW",223532,394936.6,137795.33
"190",-76.986446815011,38.9414777190791,270,"pow_303","Old Way Baptist","http://www.owbcdc.org/","CHRISTIAN","1335 MICHIGAN AVENUE NE",67013,401175.17,141508.9
"191",-76.9250164079545,38.8994801444318,28,"pow_32","Tabernacle Baptist","http://tabernaclebaptistchurch-dc.org/","CHRISTIAN","719 DIVISION AVENUE NE",288914,406504.61,136849.4
"192",-77.0318516959628,38.9459666875565,271,"pow_307","Ethiopian Orthodox Tewha","http://www.dskmariam.org/","CHRISTIAN","1350 BUCHANAN STREET NW",259641,397239.04,142007.61
"193",-77.0118968513584,38.8737767446114,272,"pow_309","Carron Baptist","","CHRISTIAN","1354 1ST STREET SW",276511,398967.84,133993.52
"194",-76.9207269052825,38.8865182247146,273,"pow_310","Open Door Baptist","","CHRISTIAN","136 56TH STREET SE",65973,406877.95,135410.84
"195",-77.0320049365514,38.9347674451808,274,"pow_311","Greater Tried Stone Baptist","","CHRISTIAN","1363 OTIS PLACE NW",230270,397225.32,140764.4
"196",-77.0321718718797,38.9371586528621,275,"pow_312","Church Of God Of Prophecy","http://www.abbashousecogop.org/","CHRISTIAN","1371 SPRING ROAD NW",277020,397210.94,141029.85
"197",-76.9852953718683,38.8963136008148,276,"pow_313","Church of God of Prophecy - Capitol Hill","","CHRISTIAN","1400 E STREET NE",149978,401275.8,136495.32
"198",-76.9287854956804,38.90378237336,277,"pow_314","New Morning Star Baptist","http://www.newmorningstarbaptist.org/","CHRISTIAN","5016 SHERIFF ROAD NE",14988,406177.29,137326.72
"199",-77.052667641863,38.902272404459,278,"pow_315","St Paul's Episcopal","http://www.stpauls-kst.com/","CHRISTIAN","2430 K STREET NW",295850,395431.75,137158.01
"200",-77.0703095883269,38.9537483495689,279,"pow_316","Saint Paul's Lutheran","http://www.stpaulslutherandc.com/","CHRISTIAN","4900 CONNECTICUT AVENUE NW",295434,393905.87,142873.31
"201",-76.9858410631458,38.8656537013094,280,"pow_317","St. Philip the Evangelist Episcopal Church","http://www.stphilipanacostia.com/","CHRISTIAN","2001 14TH STREET SE",53134,401228.99,133091.83
"202",-76.9953509256093,38.8817160870727,29,"pow_33","National Community Church","http://theaterchurch.com/location/barracksrow","CHRISTIAN","535 8TH STREET SE",300102,400403.58,134874.79
"203",-77.0225922877219,38.9725690647339,281,"pow_319","Takoma Park Baptist","http://www.takomaparkbaptistchurch.org/","CHRISTIAN","635 ASPEN STREET NW",250882,398042.45,144960.48
"204",-77.0728342614268,38.9269310893187,282,"pow_320","Temple Micah","http://www.templemicah.org/","JEWISH","2829 WISCONSIN AVENUE NW",262655,393684.66,139896.53
"205",-77.0629106483633,38.9605616429846,283,"pow_321","Temple Sinai","http://www.templesinaidc.org/","JEWISH","3100 MILITARY ROAD NW",261370,394547.72,143629.18
"206",-77.0610141538984,38.9102964967439,284,"pow_322","Church of Two Worlds","","CHRISTIAN","3038 Q STREET NW",304052,394708.36,138049.2
"207",-77.0446907375727,38.8981281888701,285,"pow_324","United Church","http://www.theunitedchurch.org/","CHRISTIAN","1920 G STREET NW",293216,396123.45,136697.6
"208",-77.0192338029647,38.9109430506618,286,"pow_325","Third Baptist","","CHRISTIAN","1546 5TH STREET NW",279234,398332.04,138119.38
"209",-77.0357968222637,38.9835223840988,287,"pow_327","Tifereth Israel Congregation","http://www.tifereth-israel.org/","JEWISH","7701 16TH STREET NW",258084,396898.68,146176.77
"210",-77.0207579513614,38.9755195111514,288,"pow_328","Trinity Episcopal","http://www.trinitychurchdc.org/","CHRISTIAN","7005 PINEY BRANCH ROAD NW",251254,398201.48,145287.97
"211",-77.0034566671191,38.9395924772356,289,"pow_329","Ukrainian Catholic National Shrine of the Holy Family","http://www.ucns-holyfamily.org/","CHRISTIAN","4250 HAREWOOD ROAD NE",288146,399700.52,141299.54
"212",-76.9850591226244,38.8657190049753,290,"pow_330","Agape 1 Church of Christ","http://agape1church.org/Home_Page.html","CHRISTIAN","2002 14TH STREET SE",53105,401296.85,133099.09
"213",-77.0155222938096,38.9061126066507,30,"pow_34","Third Street Church Of God","http://www.thirdstreet.org/","CHRISTIAN","1204 3RD STREET NW",278923,398653.85,137583.1
"214",-76.9889537372769,38.864512310684,291,"pow_331","Union Temple Baptist","http://www.uniontemple.com/","CHRISTIAN","1225 W STREET SE",70732,400958.87,132965.09
"215",-77.0290093575534,38.9129017879352,292,"pow_332","Unity Of Washington DC","http://www.unitywdc.org/","CHRISTIAN","1225 R STREET NW",278969,397484.27,138337.04
"216",-77.0368814827557,38.9143482892347,293,"pow_333","Universalist National Memorial","http://www.universalist.org/","CHRISTIAN","1810 16TH STREET NW",241913,396801.6,138497.86
"217",-77.0287742890326,38.9118427354631,294,"pow_334","Vermont Avenue Baptist","http://www.vabc.org/","CHRISTIAN","1630 VERMONT AVENUE NW",243277,397504.62,138219.47
"218",-76.9423119603308,38.8941586332122,295,"pow_335","Ward Memorial AME","http://wardamecdc.org/","CHRISTIAN","241 42ND STREET NE",289769,405004.69,136257.58
"219",-76.9975060305305,38.8817137206721,296,"pow_336","Christ Church on Capitol Hill","http://www.washingtonparish.org/","CHRISTIAN","620 G STREET SE",280026,400216.59,134874.52
"220",-77.0368880600337,38.9475728248307,297,"pow_337","Washington Seventh Day Baptist Church","http://www.washingtonsdb.com/","CHRISTIAN","4700 16TH STREET NW",258723,396802.52,142186.07
"221",-77.0726521922043,38.9593318629589,298,"pow_338","Wesley United Methodist Church","http://www.wesleydc.org/","CHRISTIAN","5312 CONNECTICUT AVENUE NW",301282,393703.31,143493.29
"222",-77.0519632935546,38.8985388442885,299,"pow_339","Western  Presbyterian","http://www.westernpresbyterian.net/","CHRISTIAN","2401 VIRGINIA AVENUE NW",218135,395492.61,136743.52
"223",-77.0182143584179,38.879027465601,300,"pow_340","Westminster Presbyterian","http://www.westminsterdc.org/","CHRISTIAN","400 I STREET SW",150785,398419.75,134576.48
"224",-76.9861445192576,38.9110283110624,4,"pow_4","Bethesda Baptist","http://bethesdaweb.org/","CHRISTIAN","1808 CAPITOL AVENUE NE",155925,401201.89,138128.76
"225",-76.9811189202942,38.8993711599103,31,"pow_35","Trinidad Baptist Church","http://trinidadbaptistchurch.org/","CHRISTIAN","1611 BENNING ROAD NE",59908,401638.03,136834.8
"226",-77.0783943155473,38.9338357871708,301,"pow_341","Washington Hebrew Congregation","http://www.whctemple.org/","CHRISTIAN","3935 MACOMB STREET NW",223083,393203.2,140663.41
"227",-77.0776330857881,38.9468576973528,302,"pow_342","Wisconsin Avenue Baptist","http://www.wisconsinavebaptist.com/","CHRISTIAN","3920 ALTON PLACE NW",222948,393270.43,142108.9
"228",-77.0377799961251,38.9501490879127,303,"pow_343","Zion Baptist Church","http://www.ziondc.org/","CHRISTIAN","4850 BLAGDEN AVENUE NW",258775,396725.32,142472.09
"229",-77.0003902196529,38.9022454503915,304,"pow_344","Pentecostal Holiness Church","","CHRISTIAN","401 K STREET NE",28157,399966.35,137153.7
"230",-76.9280107617454,38.8885867615548,305,"pow_345","Guiding Light Refuge Church","","CHRISTIAN","1 51ST STREET SE",285725,406245.82,135639.94
"231",-77.0266798106947,38.9123685989651,306,"pow_346","Tenth Street Baptist","http://www.nationalcapitalbaptist.org/about-us/member-churches/tenth-street-baptist-church.html","CHRISTIAN","1000 R STREET NW",225317,397686.29,138277.79
"232",-77.0087422700489,38.9028263429452,307,"pow_347","Saint Phillip Baptist","http://www.nationalcapitalbaptist.org/about-us/member-churches/st-phillips-baptist-church.html","CHRISTIAN","1001 NORTH CAPITOL STREET NE",285738,399241.89,137218.22
"233",-76.9368092475972,38.9030793821776,308,"pow_348","Randall Memorial United Methodist","http://www.randallumc.org/","CHRISTIAN","1002 46TH STREET NE",300552,405481.37,137248.17
"234",-76.99227240003,38.8999822058694,309,"pow_349","Deuteronomy Missionary Baptist","","CHRISTIAN","1007 H STREET NE",149707,400670.52,136902.49
"235",-76.9380165102727,38.9031050721392,310,"pow_350","First Baptist Church-Deanwood","http://www.thefirstbaptistchurchofdeanwood.org/fbcd/","CHRISTIAN","1008 45TH STREET NE",76445,405376.65,137250.95
"236",-76.9788515630348,38.9460773943811,32,"pow_36","Union Wesley AME Zion","http://unionwesleyamez.org/","CHRISTIAN","1860 MICHIGAN AVENUE NE",286511,401833.51,142019.63
"237",-77.0222047709458,38.9173736659545,311,"pow_351","Church of God","","CHRISTIAN","2030 GEORGIA AVENUE NW",279519,398074.54,138833.29
"238",-76.9849381016887,38.9243041902903,312,"pow_356","Historic Berean Baptist Church","","CHRISTIAN","1400 MONTANA AVENUE NE",286125,401306.28,139602.51
"239",-77.0332065129754,38.9369603610707,313,"pow_357","Foundation Church of God in Christ","","CHRISTIAN","1400 SPRING ROAD NW",258942,397121.23,141007.87
"240",-76.9852947911357,38.8873857621408,314,"pow_358","Thankful Baptist","","CHRISTIAN","1401 INDEPENDENCE AVENUE SE",65107,401276.01,135504.26
"241",-76.9852989019302,38.8864542960341,315,"pow_359","Victory City of Praise Academy","","CHRISTIAN","1401 SOUTH CAROLINA AVENUE SE",65132,401275.67,135400.86
"242",-76.9848834660272,38.8594320969243,316,"pow_360","New United Baptist","http://www.newunitedbaptistchurch.org/","CHRISTIAN","2233 HUNTER PLACE SE",49655,401312.21,132401.2
"243",-77.0342891246529,38.9091714442581,317,"pow_362","Grace Reformed Church","http://gracereformedchurchdc.org/","CHRISTIAN","1405 15TH STREET NW",276237,397026.21,137923.1
"244",-77.0337350745174,38.9600121264162,318,"pow_363","Evangelical Church Apostles","","CHRISTIAN","1409 MANCHESTER LANE NW",256070,397076.35,143566.84
"245",-76.9841635223821,38.8670248366123,319,"pow_364","Ambassador Baptist","http://theambassadorbaptistchurch.org/","CHRISTIAN","1412 MINNESOTA AVENUE SE",64651,401374.55,133244.06
"246",-77.0341609541473,38.9521012136647,320,"pow_365","St Luke Baptist","","CHRISTIAN","1415 GALLATIN STREET NW",300077,397039.11,142688.67
"247",-77.036042071712,38.9515578102672,33,"pow_37","Buddhist Vihara Soc Inc.","http://www.buddhistvihara.com/","BUDDHIST","5017 16TH STREET NW",255791,396876.03,142628.41
"248",-76.9928898131011,38.8436627822049,321,"pow_366","Community Of Hope","http://www.cohnaz.org/#","CHRISTIAN","905 ALABAMA AVENUE SE",81839,400617.45,130650.61
"249",-77.0348718670243,38.953805458845,322,"pow_367","First Superet Branch","http://www.spopmwashdc.com/","CHRISTIAN","1420 INGRAHAM STREET NW",255831,396977.56,142877.88
"250",-76.9851720502221,38.8934263129919,323,"pow_368","Lane Memorial CME Church","","CHRISTIAN","1423 C STREET NE",64103,401286.55,136174.81
"251",-76.9845329556381,38.9265350474604,324,"pow_369","Church of the Redeemer Presbyterian","","CHRISTIAN","1423 GIRARD STREET NE",156375,401341.37,139850.16
"252",-77.0337508173641,38.930883743379,325,"pow_370","Kelsey Temple Church of God in Christ","http://kelseytemple.org/ktcogic/","CHRISTIAN","1435 PARK ROAD NW",234471,397073.79,140333.33
"253",-77.033798620003,38.9237013993392,326,"pow_371","St Gregory the Great Orthodox Church","http://www.stgregoryoc.org/","CHRISTIAN","1443 EUCLID STREET NW",234249,397069.35,139536.03
"254",-77.0345926914251,38.927693023178,327,"pow_372","Calvary United Methodist","","CHRISTIAN","1459 COLUMBIA ROAD NW",234371,397000.66,139979.16
"255",-77.0345926914251,38.927693023178,328,"pow_373","Casa Del Pueblo","","CHRISTIAN","1459 COLUMBIA ROAD NW",234371,397000.66,139979.16
"256",-76.9307962128694,38.8904960594875,329,"pow_374","Peace Lutheran Church","","CHRISTIAN","15 49TH PLACE NE",286270,406004,135851.7
"257",-77.0138566860169,38.9138951245743,330,"pow_375","Medhane Alem Orthodox Church","http://medhanealemorthodox.org/","CHRISTIAN","150 S STREET NW",226970,398798.45,138447
"258",-76.9934867071428,38.895726368481,34,"pow_40","Washington Community (Mennonite)","http://wcfchurch.org/","CHRISTIAN","907 MARYLAND AVENUE NE",81944,400565.22,136430.05
"259",-77.0361237560652,38.9117326842691,331,"pow_376","Central DC Spanish Seventh-day Adventist Chruch","http://centraldchispanic22.adventistchurchconnect.org/","CHRISTIAN","1611 16TH STREET NW",301850,396867.2,138207.48
"260",-77.0360505345179,38.9270045273837,332,"pow_378","National Baptist Memorial Church","http://nbmchurchdc.org/","CHRISTIAN","1501 COLUMBIA ROAD NW",297688,396874.22,139902.78
"261",-77.0360505345179,38.9270045273837,333,"pow_379","First Haitian Baptist","","CHRISTIAN","1501 COLUMBIA ROAD NW",297688,396874.22,139902.78
"262",-77.0360505345179,38.9270045273837,334,"pow_380","Hispanic Baptist Congregation","","CHRISTIAN","1501 COLUMBIA ROAD NW",297688,396874.22,139902.78
"263",-76.98901905313,38.9073149261135,335,"pow_381","New Life Baptist","","CHRISTIAN","1501 WEST VIRGINIA AVENUE NE",62626,400952.63,137716.51
"264",-76.9358199752672,38.9097369159783,336,"pow_382","Gospel Missionary Baptist","","CHRISTIAN","1505 KENILWORTH AVENUE NE",150043,405566.66,137987.27
"265",-77.0349261994441,38.9102358617775,337,"pow_384","St. Luke's Episcopal","http://stlukesdc.org/","CHRISTIAN","1514 15TH STREET NW",225643,396971,138041.28
"266",-77.0354602493185,38.9053402941807,338,"pow_386","Metropolitan AME Church","http://www.metropolitanamec.org/","CHRISTIAN","1518 M STREET NW",242328,396924.47,137497.85
"267",-76.9829749340853,38.866560105552,339,"pow_387","Apostolic Faith Inc","","CHRISTIAN","1524 GOOD HOPE ROAD SE",286297,401477.71,133192.49
"268",-77.0359979142084,38.9004432773375,340,"pow_388","Saint John's Episcopal Church","http://www.stjohns-dc.org/","CHRISTIAN","1525 H STREET NW",218329,396877.62,136954.26
"269",-77.0274106916568,38.9054217336655,35,"pow_41","The Second Episcopal District of the AME Church","http://www.2ndamec.org/","CHRISTIAN","1134 11TH STREET NW",239118,397622.67,137506.65
"270",-77.0278498151414,38.9109833834813,341,"pow_389","First Genesis Baptist","","CHRISTIAN","1527 12TH STREET NW",225725,397584.77,138124.05
"271",-77.0359532605729,38.9108864030745,342,"pow_390","BET Mishpachah","http://www.betmish.org/","JEWISH","1529 16TH STREET NW",225737,396881.95,138113.53
"272",-77.0359532605729,38.9108864030745,343,"pow_391","District of Columbia Minyan","","JEWISH","1529 16TH STREET NW",225737,396881.95,138113.53
"273",-77.017020069945,38.9105441443809,344,"pow_392","Second Church Of God","","CHRISTIAN","1530 NEW JERSEY AVENUE NW",237407,398524.03,138075.06
"274",-77.0141858701593,38.9167431603755,345,"pow_393","St George's Episcopal","http://www.stgeorgesdc.org/","CHRISTIAN","160 U STREET NW",227530,398769.95,138763.16
"275",-76.9267916946604,38.8839074990683,346,"pow_394","Miracle Temple Nondenominational Church","","CHRISTIAN","5219 CALL PLACE SE",11418,406352,135120.59
"276",-76.9919905634886,38.8945998691596,347,"pow_395","Living Water Worship Center","","CHRISTIAN","1015 D STREET NE",156301,400695.02,136305.01
"277",-77.0278146391193,38.932244390453,348,"pow_396","Park Road Community Church","","CHRISTIAN","1019 PARK ROAD NW",230971,397588.54,140484.2
"278",-76.9916738898413,38.9342722009565,349,"pow_397","Guildfield Baptist Church","http://guildfieldbaptistchurch.org/","CHRISTIAN","1023 OTIS STREET NE",75219,400722.09,140708.97
"279",-76.9914656049343,38.9293330209469,350,"pow_398","Guiding Star Baptist Church","http://guidingstarbaptist.org/","CHRISTIAN","1025 JACKSON STREET NE",75266,400740.2,140160.68
"280",-76.9702852186312,38.8568926118809,36,"pow_42","Allen Chapel AME Church","http://www.acamec.org","CHRISTIAN","2498 ALABAMA AVENUE SE",46843,402579.33,132119.61
"281",-76.9366174985559,38.9041475793211,351,"pow_399","Macedonia Community Church","http://netministries.org/see/churches.exe/ch14372","CHRISTIAN","1026 46TH STREET NE",285769,405497.92,137366.76
"282",-76.9916874988877,38.9322996533562,352,"pow_400","St Anthony of Padua","http://www.stanthonyofpaduadc.org/","CHRISTIAN","1029 MONROE STREET NE",156434,400720.93,140490
"283",-76.9810398282864,38.9041776463924,353,"pow_401","Deliverance Miracle Temple","","CHRISTIAN","1100 BLADENSBURG ROAD NE",74591,401644.78,137368.36
"284",-77.0149855453785,38.9047061127123,354,"pow_402","Bible Way Church","http://www.biblewaywashington.org/","CHRISTIAN","1100 NEW JERSEY AVENUE NW",238358,398700.38,137426.96
"285",-77.0095757211046,38.9040186234324,355,"pow_403","Mount Airy Baptist","http://www.mountairybaptist.org/","CHRISTIAN","1100 NORTH CAPITOL STREET NW",285575,399169.61,137350.58
"286",-77.0272569008717,38.9190158963468,356,"pow_404","Soul Saving Center Church Of God","","CHRISTIAN","1100 W STREET NW",238993,397636.46,139015.71
"287",-77.0003124090927,38.9038801067865,357,"pow_405","Greater Pleasant Grove Baptist","","CHRISTIAN","1101 4TH STREET NE",149755,399973.1,137335.16
"288",-76.9282751475282,38.9050115215892,358,"pow_406","Antioch Baptist Church of Deanwood","http://www.antiochabc.org/Index.asp","CHRISTIAN","1105 50TH STREET NE",74277,406221.45,137463.2
"289",-77.0048719702816,38.8772835882246,359,"pow_407","St Matthews Baptist","","CHRISTIAN","1105 NEW JERSEY AVENUE SE",285837,399577.45,134382.75
"290",-77.0274550068174,38.9190126069679,360,"pow_408","True Gospel Baptist","","CHRISTIAN","1106 W STREET NW",243230,397619.28,139015.35
"291",-77.0575291859182,38.9368001210808,37,"pow_43","Adas Israel Congregation","http://www.adasisrael.org/","JEWISH","2850 QUEBEC STREET NW",219289,395012.47,140991.13
"292",-77.0141328221372,38.8771514921248,361,"pow_409","Second Union Baptist Church","","CHRISTIAN","1107 DELAWARE AVENUE SW",74353,398773.87,134368.17
"293",-77.012223506446,38.9568988655115,362,"pow_410","Church of the Heart of the Redeemed","http://www.christuniversalchurch.org/","CHRISTIAN","111 KENNEDY STREET NW",245870,398940.73,143220.77
"294",-76.990915715505,38.8849573142274,363,"pow_411","Greater People Union Baptist","","CHRISTIAN","1111 SOUTH CAROLINA AVENUE SE",74141,400788.37,135234.62
"295",-77.0277671209595,38.9070711685663,364,"pow_412","Mount Zion Pentecostal","","CHRISTIAN","1112 N STREET NW",239100,397591.81,137689.76
"296",-77.0201645925677,38.9047400156917,365,"pow_413","Galbraith AME Zion Church","http://www.galbraithamez.org/","CHRISTIAN","1114 6TH STREET NW",218006,398251.16,137430.81
"297",-76.9945005203062,38.861720994856,366,"pow_414","United House Of Prayer - Anacostia","","CHRISTIAN","1123 HOWARD ROAD SE",279998,400477.5,132655.19
"298",-77.0274106916568,38.9054217336655,367,"pow_415","Womens Missionary Society - AME Church","http://www.wms-amec.org/","CHRISTIAN","1134 11TH STREET NW",239118,397622.67,137506.65
"299",-77.0116437254774,38.876235252527,368,"pow_416","Second Baptist Church SW","","CHRISTIAN","1200 CANAL STREET SW",155910,398989.84,134266.43
"300",-77.0138870969674,38.9060469614426,369,"pow_417","New Birth Baptist Church","","CHRISTIAN","1200 KIRBY STREET NW",238357,398795.68,137575.79
"301",-76.9893829420167,38.9435803771283,370,"pow_418","Josephite Pastoral Center","http://www.josephitepastoralcenter.org/","CHRISTIAN","1200 VARNUM STREET NE",289610,400920.6,141742.28
"302",-77.0087569572729,38.9172826619647,38,"pow_45","All Nations Baptist","http://www.allnationsbaptistchurch.com/","CHRISTIAN","2001 NORTH CAPITOL STREET NE",297690,399240.77,138822.99
"303",-76.990017785979,38.901131231431,371,"pow_419","Sacred Heart of Jesus International Spiritual Baptist Church","","CHRISTIAN","1201 I STREET NE",72095,400866.08,137030.06
"304",-76.9850449758043,38.9018924475296,372,"pow_420","The New Trinidad Church","","CHRISTIAN","1201 STAPLES STREET NE",72110,401297.42,137114.62
"305",-77.0276763015127,38.9499369791421,373,"pow_421","St Joseph Baptist","","CHRISTIAN","1203 EMERSON STREET NW",252869,397601.13,142448.23
"306",-77.0163878698388,38.9059600671375,374,"pow_422","The Church Of The Living God","","CHRISTIAN","1206 4TH STREET NW",237471,398578.77,137566.18
"307",-76.930380417396,38.9067087076502,375,"pow_423","Victory Memorial Baptist Church","","CHRISTIAN","1215 49TH PLACE NE",71440,406038.7,137651.46
"308",-76.9894296289784,38.9274471443233,376,"pow_425","First Church of Washington DC","http://www.firstchurchwash.org/","CHRISTIAN","1219 HAMLIN STREET NE",71234,400916.76,139951.35
"309",-76.9900608780706,38.9294410997765,377,"pow_426","Grace United Baptist","","CHRISTIAN","1219 JACKSON STREET NE",71241,400862,140172.69
"310",-77.0146820922068,38.9063325190194,378,"pow_427","Mount Lebanon Baptist Church","","CHRISTIAN","1219 NEW JERSEY AVENUE NW",238345,398726.73,137607.5
"311",-76.9891530685004,38.9237079462731,379,"pow_429","Church Of The Living God","","CHRISTIAN","1222 RHODE ISLAND AVENUE NE",71015,400940.79,139536.27
"312",-76.9345753666342,38.9070642593263,380,"pow_430","Beauty for Ashes Multicultural Worship Center","","CHRISTIAN","1229 47TH PLACE NE",70669,405674.82,137690.66
"313",-77.0359888086203,38.9260376837201,39,"pow_46","All Souls Church Unitarian","","CHRISTIAN","1500 HARVARD STREET NW",294269,396879.53,139795.45
"314",-76.9891435464536,38.893835008895,381,"pow_431","Church Of The Lord Jesus Christ of the Apostolic Faith","http://www.tcljc.com/NewSite/","CHRISTIAN","1230 C STREET NE",70538,400942.01,136220.13
"315",-76.9399196229111,38.9067175155316,382,"pow_432","Zion Baptist Chuch-Eastland","","CHRISTIAN","1234 KENILWORTH AVENUE NE",297542,405211.31,137651.85
"316",-77.0293887930787,38.9142376297257,383,"pow_433","Beginning Church of God","","CHRISTIAN","1235 S STREET NW",278992,397451.41,138485.34
"317",-76.9888520588656,38.9024630116796,384,"pow_434","Holy Trinity Missionary Baptist","","CHRISTIAN","1244 FLORIDA AVENUE NE",69845,400967.18,137177.91
"318",-77.01563958704,38.9068273134897,385,"pow_435","3rd St Church of God","http://www.thirdstreet.org/","CHRISTIAN","1246 NEW JERSEY AVENUE NW",279005,398643.69,137662.44
"319",-76.9786805497009,38.9069131661804,386,"pow_436","Beth Shalom AME Zion","http://www.bethshalomamezion.org/default.php?main_id=26","CHRISTIAN","1249 BLADENSBURG ROAD NE",285980,401849.35,137672.07
"320",-77.0127503001499,38.9562322877336,387,"pow_437","Faith Gospel Church","","CHRISTIAN","125 MISSOURI AVENUE NW",245888,398895.06,143146.78
"321",-76.9884909691723,38.8782521561514,388,"pow_439","Prayer Temple Apostolic Church","","CHRISTIAN","1259 K STREET SE",148446,400998.84,134490.32
"322",-76.9880944710817,38.8999627571532,389,"pow_440","Saint John's Church Of God","","CHRISTIAN","1301 H STREET NE",68809,401032.93,136900.37
"323",-76.9872889846758,38.8650871485159,390,"pow_441","Delaware Ave Baptist","","CHRISTIAN","1301 V STREET SE",286094,401103.34,133028.92
"324",-77.0528848274778,38.9276009583169,40,"pow_47","All Souls Memorial Episcopal","http://www.allsoulsdc.org/","CHRISTIAN","2300 CATHEDRAL AVENUE NW",219212,395414.54,139969.7
"325",-77.0446907375727,38.8981281888701,391,"pow_442","3 Strands Community Chruch","http://www.3strandschurch.org/","CHRISTIAN","1920 G STREET NW",293216,396123.45,136697.6
"326",-76.9876765011327,38.8643449866899,392,"pow_443","New Convenant Missionary Baptist Church","http://www.refreshingspringministries.org/","CHRISTIAN","1301 W STREET SE",68836,401069.72,132946.53
"327",-77.0311233780579,38.9077522546562,393,"pow_444","Mount Olivet Lutheran Church","http://www.lutheransonline.com/servlet/lo_ProcServ/dbpage=page&gid=20071437302121030801111555","CHRISTIAN","1306 VERMONT AVENUE NW",297685,397300.73,137765.46
"328",-76.9877643806517,38.8901032440693,394,"pow_445","House Of God","","CHRISTIAN","1310 EAST CAPITOL STREET NE",68287,401061.71,135805.89
"329",-77.030854544236,38.949936723969,395,"pow_446","Emerson Masjid","","ISLAM","1311 EMERSON STREET NW",255082,397325.63,142448.29
"330",-77.0182467852263,38.970220204783,396,"pow_447","Promised Land Baptist","http://www.myplbc.org","CHRISTIAN","401 VAN BUREN STREET NW",249066,398418.96,144699.65
"331",-76.9450476209028,38.8992303116221,397,"pow_449","New Jerusalem Temple","","CHRISTIAN","4024 GAULT PLACE NE",27634,404767.03,136820.43
"332",-76.9885055431448,38.8950975609033,398,"pow_450","Greater Friendly Baptist","","CHRISTIAN","404 13TH STREET NE",27627,400997.34,136360.29
"333",-77.0811522875717,38.9489700918673,399,"pow_452","The City Church","http://www.thecitydc.org/","CHRISTIAN","4100 RIVER ROAD NW",264424,392965.57,142343.66
"334",-77.0002716949376,38.8993432277073,400,"pow_453","Northeast Holy Trinity Church","http://neholytrinitychurch.org/","CHRISTIAN","709 4TH STREET NE",288884,399976.63,136831.53
"335",-76.9861847864605,38.8918348379359,5,"pow_5","Brown Memorial AME","http://rhatiamays.wix.com/brownmemorialame","CHRISTIAN","130 14TH STREET NE",68930,401198.72,135998.13
"336",-76.9257791846354,38.8905423453735,41,"pow_48","Hughes Memorial Methodist Church","http://www.hughesmemorial.org/","CHRISTIAN","25 53RD STREET NE",287077,406439.25,135857.18
"337",-76.9888398152021,38.9490434896679,401,"pow_454","Deeper Life Bible Church","","CHRISTIAN","4915 SARGENT ROAD NE",288318,400967.61,142348.74
"338",-76.9860555632901,38.8954090737988,402,"pow_455","St Paul Christian Community Church","","CHRISTIAN","414 TENNESSEE AVENUE NE",26212,401209.87,136394.9
"339",-76.9940316333453,38.8830694473865,403,"pow_456","Tried Stone Church Of Christ","http://www.triedstonechurch.org/","CHRISTIAN","417 9TH STREET SE",25945,400518.04,135025.03
"340",-77.0230264006819,38.9421553712264,404,"pow_459","Rock Creek Baptist","","CHRISTIAN","4201 8TH STREET NW",284844,398003.98,141584.29
"341",-76.9947314819697,38.9014998907825,405,"pow_464","Crusaders Baptist","http://crusadersbaptistchurch.org/","CHRISTIAN","800 I STREET NE",301934,400457.2,137070.95
"342",-76.9410701116768,38.8926448769812,406,"pow_465","New Grove Missionary Baptist","http://newgrovebc.org/","CHRISTIAN","4242 BENNING ROAD NE",24575,405112.53,136089.61
"343",-76.9401893570134,38.9026535347279,407,"pow_468","Divine Love Baptist Church","","CHRISTIAN","4303 SHERIFF ROAD NE",24020,405188.21,137200.7
"344",-76.9834061561978,38.8956346574003,408,"pow_469","Highway Deliverance Church","http://highwaydeliveranceministries.org/","CHRISTIAN","431 15TH STREET NE",23720,401439.7,136419.98
"345",-77.018694934417,38.9190201923531,409,"pow_470","Highway Christian Church of Christ","","CHRISTIAN","432 W STREET NW",284877,398378.96,139016
"346",-77.0109882578706,38.9109003366486,410,"pow_472","Ebenezer Baptist Church","","CHRISTIAN","44 Q STREET NW",236777,399047.18,138114.52
"347",-76.9989313481595,38.9054393581179,42,"pow_50","Upon This Rock Tabernacle","http://uponthisrocktabernacle.com/","CHRISTIAN","513 M STREET NE",12716,400092.89,137508.25
"348",-76.938976742508,38.8973021205918,411,"pow_473","Central Union Baptist","http://cubcdc.org/","CHRISTIAN","4401 FOOTE STREET NE",22558,405293.79,136606.72
"349",-76.9380967391732,38.9048446282055,412,"pow_474","Second Refreshing Church of God in Christ","","CHRISTIAN","4407 LEE STREET NE",22292,405369.56,137444.05
"350",-76.9388737087756,38.9009061328978,413,"pow_476","Revelation Knowledge Christian","","CHRISTIAN","801 44TH STREET NE",300513,405302.46,137006.8
"351",-76.940084403983,38.9021551385678,414,"pow_477","Soul Savings Center Of Christ","","CHRISTIAN","909 43RD PLACE NE",82001,405197.35,137145.38
"352",-76.9421341029441,38.8836317129024,415,"pow_478","Greater Deliverance Christian Center","http://www.greaterdeliverancecogic.org/","CHRISTIAN","441 CHAPLIN STREET SE",288204,405020.86,135089.02
"353",-77.0265829580915,38.9445417227463,416,"pow_479","St Charles Baptist","http://www.scbcdc.org/","CHRISTIAN","4410 GEORGIA AVENUE NW",252656,397695.73,141849.28
"354",-76.938266337972,38.9008395119998,417,"pow_480","The Vision Chruch of God In Christ Inc.","","CHRISTIAN","4410 HUNT PLACE NE",22193,405355.15,136999.44
"355",-76.9382331559672,38.9025477496958,418,"pow_481","Deanwood Seventh-Day Adventist Fellowship","","CHRISTIAN","4417 SHERIFF ROAD NE",21764,405357.9,137189.07
"356",-77.0880627615001,38.9539129771377,419,"pow_482","Washington International Church","http://internationalchurch.org/","CHRISTIAN","4420 RIVER ROAD NW",267907,392367.07,142892.92
"357",-76.9379860668877,38.9025833819855,420,"pow_483","New Beginning Christian","","CHRISTIAN","4421 SHERIFF ROAD NE",21688,405379.33,137193.04
"358",-76.9612520172033,38.8736196720862,43,"pow_51","Apostolic Faith Church","http://apostolicfaithdc.org/","CHRISTIAN","1325 BRANCH AVENUE SE",67566,403362.59,133976.73
"359",-76.9210839655595,38.8977872244818,421,"pow_484","Maranatha Chapel Fellowship","http://maranathachapelfellowship.org/","CHRISTIAN","616 56TH STREET NE",4230,406845.89,136661.76
"360",-76.9210839655595,38.8977872244818,422,"pow_175","Righetous Church Of God","http://www.rcgministries.org/","CHRISTIAN","616 56TH STREET NE",4230,406845.89,136661.76
"361",-77.0028599572977,38.8901202448768,423,"pow_176","Lutheran Church Of The Reformation","http://www.reformationdc.org/","CHRISTIAN","212 EAST CAPITOL STREET NE",286648,399752.08,135807.71
"362",-76.9207852364473,38.8956455528324,424,"pow_177","The Refuge Temple Church","http://www.refugetempledc.net/bonner.htm","CHRISTIAN","420 56TH STREET NE",149583,406872.01,136424.04
"363",-77.0219214950241,38.878870893238,425,"pow_178","Riverside Baptist Church","http://riversidedc.org/","CHRISTIAN","680 I STREET SW",276717,398098.08,134559.17
"364",-77.0329306694003,38.9183488095578,426,"pow_179","St Augustine Catholic Church","http://saintaugustine-dc.org/","CHRISTIAN","1419 V STREET NW",284027,397144.4,138941.82
"365",-77.0359544040294,38.9438015272118,427,"pow_180","St George Antiochian Church","http://www.saintgeorge.org/","CHRISTIAN","4335 16TH STREET NW",284888,396883.29,141767.39
"366",-77.0817413518867,38.9562396298153,428,"pow_182","Saint Louis of France","http://www.saintlouisdefrance.us/","CHRISTIAN","4125 GARRISON STREET NW",264552,392915.23,143150.69
"367",-77.0254981164903,38.8979556793936,429,"pow_183","St. Patrick Catholic Church","http://www.saintpatrickdc.org/","CHRISTIAN","619 10TH STREET NW",285555,397788.33,136677.81
"368",-77.0446011376707,38.9128329171678,430,"pow_187","Church Of Scientology","","SCIENTOLOGY","1701 20TH STREET NW",241012,396132.02,138329.94
"369",-77.0273339409268,38.9021983822313,44,"pow_52","Asbury United Methodist Church","http://www.asburyumcdc.org","CHRISTIAN","926 11TH STREET NW",301937,397629.22,137148.83
"370",-77.0243294663931,38.9099165908011,431,"pow_189","Shiloh Baptist","http://www.ShilohBaptist.org","CHRISTIAN","1500 9TH STREET NW",225558,397890.06,138005.54
"371",-77.0201712748568,38.9006476084206,432,"pow_191","Sixth & I Historic Synagogue","http://www.sixthandi.org/","JEWISH","600 I STREET NW",279837,398250.48,136976.52
"372",-77.0359242922605,38.9559238848941,433,"pow_192","Sixth Presbyterian Church","http://www.sixthpresbyterian.org/","CHRISTIAN","5413 16TH STREET NW",255870,396886.43,143113.08
"373",-76.987761086087,38.8656291451691,434,"pow_193","St. Teresa of Avila","http://www.stachurch.org/","CHRISTIAN","1244 V STREET SE",151472,401062.36,133089.08
"374",-77.0724201782161,38.9294791688187,435,"pow_194","St Alban's Parish","http://www.stalbansdc.org/","CHRISTIAN","3001 WISCONSIN AVENUE NW",221620,393720.79,140179.36
"375",-77.0096623160506,38.9015641996723,436,"pow_195","Saint Aloysius Gonzaga Church","","CHRISTIAN","19 I STREET NW",279445,399162.07,137078.12
"376",-77.1058707049011,38.9324841408983,437,"pow_196","St David's Episcopal","http://www.stdavidsdc.org/","CHRISTIAN","5150 MACOMB STREET NW",268603,390820.75,140515.77
"377",-76.9754820792146,38.9290769068673,438,"pow_197","St. Francis De Sales Catholic Church","http://www.stfrancisdesaleswdc.org/","CHRISTIAN","2015 RHODE ISLAND AVENUE NE",302519,402126.11,140132.5
"378",-76.9873490788557,38.8569374165596,439,"pow_198","St John Christian Methodist","http://www.stjohncmecdc.org/","CHRISTIAN","2801 STANTON ROAD SE",44747,401098.25,132124.24
"379",-77.0030900855644,38.8941031109386,440,"pow_199","St. Joseph's on Capitol Hill","http://www.st-josephs.org/","CHRISTIAN","313 2ND STREET NE",287594,399732.13,136249.84
"380",-77.0286301126454,38.9048249981718,45,"pow_53","Church of Ascension and Saint Agnes","http://www.asa-dc.org/","CHRISTIAN","1217 MASSACHUSETTS AVENUE NW",278948,397516.88,137440.44
"381",-77.009331830834,38.9159313674842,441,"pow_201","Saint Martin of Tours Catholic","http://www.stmartinsdc.org/","CHRISTIAN","1908 NORTH CAPITOL STREET NW",300441,399190.9,138672.99
"382",-77.0816982678625,38.954988231072,442,"pow_202","St Mary Armenian Apostolic Church","http://www.stmaryaac.org/","CHRISTIAN","4125 FESSENDEN STREET NW",264534,392918.84,143011.77
"383",-77.0402742254022,38.90639199029,443,"pow_203","Cathedral of St. Matthew the Apostle","http://www.stmatthewscathedral.org/","CHRISTIAN","1725 RHODE ISLAND AVENUE NW",243332,396506.97,137614.77
"384",-77.0913854792985,38.9160952680408,444,"pow_204","St Patrick's Episcopal","http://stpatrickschurchdc.org/","CHRISTIAN","4700 WHITEHAVEN PARKWAY NW",224448,392074.86,138695.11
"385",-76.9347492419305,38.8805828945535,445,"pow_205","Jones Memorial Methodist Church","","CHRISTIAN","4625 G STREET SE",18817,405661.84,134751.01
"386",-76.9354602541101,38.8988974140326,446,"pow_206","Mount Sinai Primitive Baptist","","CHRISTIAN","4625 GAULT PLACE NE",18819,405598.71,136784.02
"387",-77.0359391334222,38.9485190799393,447,"pow_207","16th & Decatur Church Of Christ","http://coc16th.org/","CHRISTIAN","4801 16TH STREET NW",255733,396884.82,142291.08
"388",-77.0267284169142,38.9491496060257,448,"pow_208","Faith Assembly Of Christ","http://www.faithassemblyofchrist.com/MotherChurch2.html","CHRISTIAN","4821 GEORGIA AVENUE NW",284969,397683.27,142360.8
"389",-76.932577093129,38.9058533015862,449,"pow_209","Temple Of The Living Epostle","","CHRISTIAN","4821 MEADE STREET NE",16937,405848.24,137556.36
"390",-77.0369352883423,38.9507794867678,450,"pow_210","Nipponzan Myohoji","","BUDDHIST","4900 16TH STREET NW",258782,396798.57,142542.04
"391",-77.00395642842,38.841361272909,46,"pow_54","Church of the Assumption of the Blessed Virgin Mary","http://www.assumptionchurch-dc.org/","CHRISTIAN","3401 MARTIN LUTHER KING JR AVENUE SE",301531,399656.72,130395.11
"392",-76.9814404063283,38.8560681243558,451,"pow_527","Greater  Mt Joy Church Of Christ Holiness","","CHRISTIAN","1619 FRANKFORD STREET SE",59646,401611.12,132027.83
"393",-77.0292262933292,38.9119012675713,452,"pow_528","Mt Gilead Baptist","http://www.mtgileaddc.org/","CHRISTIAN","1625 13TH STREET NW",240892,397465.42,138225.98
"394",-77.0369121805861,38.9121720449102,453,"pow_529","DC Baptist Convention HQ","","CHRISTIAN","1628 16TH STREET NW",242819,396798.84,138256.28
"395",-77.0266600420071,38.9128462256707,454,"pow_530","Lincoln Temple United Church of Christ","http://www.lincolntemple.org/","CHRISTIAN","1701 11TH STREET NW",279293,397688.02,138330.81
"396",-77.0341819173722,38.9128190438441,455,"pow_531","Fifteenth Street Presbyterian","http://www.15thstpresbyterian.org/","CHRISTIAN","1701 15TH STREET NW",240136,397035.66,138328.01
"397",-77.039122262716,38.9058305308615,456,"pow_532","Saint German Foundation ""I AM"" Sanctuary","http://www.saintgermainfoundation.org/SGF_00_Welcome.html","CHRISTIAN","1711 M STREET NW",241781,396606.86,137552.4
"398",-77.0094136500538,38.9129381608633,457,"pow_533","Metropolitan Wesley AME Zion","http://metropolitanwesley.org/","CHRISTIAN","1712 NORTH CAPITOL STREET NW",298910,399183.77,138340.72
"399",-76.9793382058383,38.8642384106087,458,"pow_534","Anacostia International Assembly of God","","CHRISTIAN","1716 V STREET SE",57240,401793.38,132934.83
"400",-76.9799047524037,38.8691880016622,459,"pow_538","The Standard of Living Ministries","http://thestandardofliving.org/content.cfm?id=306","CHRISTIAN","1720 MINNESOTA AVENUE SE",286426,401744.09,133484.26
"401",-76.9799047524037,38.8691880016622,460,"pow_540","Garden Memorial Presbyterian","","CHRISTIAN","1720 MINNESOTA AVENUE SE",286426,401744.09,133484.26
"402",-77.0272197992323,38.9580620049752,47,"pow_55","Berean Baptist","","CHRISTIAN","924 MADISON STREET NW",285465,397640.97,143350.17
"403",-77.0017882241555,38.9134863235989,461,"pow_541","James Memorial Missionary Baptist","","CHRISTIAN","1723 3RD STREET NE",57024,399845.11,138401.53
"404",-76.9790942530436,38.9437851897618,462,"pow_542","Evangelical Lutheran Church of Our Redeemer","","CHRISTIAN","1725 MICHIGAN AVENUE NE",286441,401812.53,141765.17
"405",-76.9335453867741,38.8995840389821,463,"pow_543","Sacred Heart Spiritual Church","","CHRISTIAN","721 48TH STREET NE",77706,405764.76,136860.36
"406",-77.0466415736466,38.9153612114783,464,"pow_545","St Margaret's Episcopal","http://www.stmargaretsdc.org/","CHRISTIAN","1830 CONNECTICUT AVENUE NW",299899,395955.2,138610.69
"407",-76.9885640264208,38.8934136321155,465,"pow_546","Tried Stone Fire Baptized Holiness Church","http://www.fbhchurch.org/tstone.html","CHRISTIAN","256 13TH STREET NE",287110,400992.29,136173.36
"408",-76.9638152770864,38.871137057449,466,"pow_547","Pennsylvania Ave Baptist","","CHRISTIAN","3000 PENNSYLVANIA AVENUE SE",42549,403140.27,133701.05
"409",-77.0649919335743,38.9074878909996,467,"pow_548","Saint John's Espiscopal Georgetown Parish","http://www.stjohnsgeorgetown.org/","CHRISTIAN","3240 O STREET NW",272132,394363.14,137737.66
"410",-76.9560945621574,38.8629970204574,468,"pow_549","St Timothy's Episcopal Church","http://www.sttimothysofdc.org/","CHRISTIAN","3601 ALABAMA AVENUE SE",33104,403810.7,132797.74
"411",-77.0055249197632,38.8382090615706,469,"pow_550","Church Of The Holy Communion","http://www.holycommuniondc.org/","CHRISTIAN","3640 MARTIN LUTHER KING JR AVENUE SE",32174,399520.53,130045.2
"412",-77.0086635862451,38.8340181361779,470,"pow_551","Covenant Baptist Church","http://www.covenantdc.org/","CHRISTIAN","3845 SOUTH CAPITOL STREET SW",301907,399247.99,129580
"413",-77.0359532605729,38.9108864030745,48,"pow_56","Jewish Community Center","http://www.washingtondcjcc.org/","JEWISH","1529 16TH STREET NW",225737,396881.95,138113.53
"414",-77.0368952276055,38.9411390140836,471,"pow_552","Northwest Community Chruch","http://thenorthwestchurch.com/","CHRISTIAN","4100 16TH STREET NW",258346,396801.61,141471.86
"415",-76.9374523590853,38.8992198259157,472,"pow_553","Holy Trinity United Baptist Church","http://www.holytrinityunitedbaptistchurch.com/","CHRISTIAN","4504 GAULT PLACE NE",20708,405425.88,136819.69
"416",-77.0205143910999,38.9059767114118,473,"pow_554","United House Of Prayer For All People - God's White House","http://tuhopfap.org/","CHRISTIAN","601 M STREET NW",238634,398220.85,137568.1
"417",-77.0504542793572,38.8991849550378,474,"pow_557","St Mary's Episcopal","http://www.episcopalchurch.org/parish/st-marys-episcopal-church-washington-dc","CHRISTIAN","728 23RD STREET NW",218740,395623.55,136815.17
"418",-77.015540962483,38.9007822705252,475,"pow_558","Second Baptist","http://www.secondbaptistchurchdc.org/","CHRISTIAN","816 3RD STREET NW",279959,398652.13,136991.39
"419",-76.998679753183,38.9008552738396,476,"pow_559","Calvary Episcopal Church","http://www.calvarydc.net/","CHRISTIAN","820 6TH STREET NE",277631,400114.72,136999.38
"420",-77.0148210978328,38.901717431683,477,"pow_560","Mount Carmel Baptist","http://www.themcbc.org/","CHRISTIAN","901 3RD STREET NW",238361,398714.59,137095.19
"421",-77.0235634553036,38.9138421325001,478,"pow_561","New Bethel Baptist","http://www.nbbc-dc.org/","CHRISTIAN","1739 9TH STREET NW",239902,397956.61,138441.29
"422",-77.0201664734344,38.9142462516606,479,"pow_562","All Souls House Of Prayer","","CHRISTIAN","1800 6TH STREET NW",238443,398251.23,138486.08
"423",-76.9789250477975,38.9285073521635,480,"pow_563","Pleasant Grove Baptist","","CHRISTIAN","1800 HAMLIN STREET NE",56145,401827.59,140069.2
"424",-76.9609834437754,38.8707889616808,49,"pow_57","Southeast Christian Fellowship","http://www.secf3140.org/","CHRISTIAN","3140 Q STREET SE",39522,403386.03,133662.51
"425",-76.9793661560424,38.9329661838023,481,"pow_564","Deliverance House of Healing","","CHRISTIAN","1801 MONROE STREET NE",150131,401789.23,140564.16
"426",-77.0284728701492,38.9146761121203,482,"pow_566","Twelfth Street Christian","","CHRISTIAN","1812 12TH STREET NW",240852,397530.86,138533.99
"427",-76.985536914581,38.9120415857899,483,"pow_567","Trinity Baptist","http://www.trinitybaptistchurchdc.org/","CHRISTIAN","1814 CENTRAL PLACE NE",286491,401254.57,138241.25
"428",-77.0342695470324,38.9147378843447,484,"pow_568","St James Restoration Apostle","","CHRISTIAN","1819 15TH STREET NW",218521,397028.14,138541.02
"429",-76.978258476051,38.9446934329279,485,"pow_570","Rhema Christian Center","http://www.rhemachristiancenter.org/","CHRISTIAN","1825 MICHIGAN AVENUE NE",289132,401884.96,141866.01
"430",-77.0294966453355,38.9344113763292,486,"pow_573","Muslim Society of Washington","","ISLAM","3583 13TH STREET NW",243395,397442.78,140724.8
"431",-77.0438283326639,38.9193244356696,487,"pow_574","Goodwill Baptist","http://goodwillbaptistchurchdc.org/","CHRISTIAN","1862 KALORAMA ROAD NW",235475,396199.39,139050.52
"432",-77.0096623160506,38.9015641996723,488,"pow_575","Father MCKenna Center","http://www.fathermckennacenter.org/","CHRISTIAN","19 I STREET NW",279445,399162.07,137078.12
"433",-76.9846677124282,38.9117846471793,489,"pow_576","Gateway to Heaven Pentecostal Holiness","","CHRISTIAN","1910 WEST VIRGINIA AVENUE NE",54127,401329.96,138212.74
"434",-76.976718114449,38.8709762994415,490,"pow_577","Inner Light Ministries","","CHRISTIAN","1912 Q STREET SE",54175,402020.58,133682.84
"435",-77.0226837027425,38.89940336322,50,"pow_58","Calvary Baptist Church","http://www.calvarydc.com/","CHRISTIAN","755 8TH STREET NW",295164,398032.51,136838.45
"436",-76.9754426173787,38.8989920237451,491,"pow_578","Open Door Temple Church of God in Christ","","CHRISTIAN","1918 BENNING ROAD NE",54117,402130.43,136792.83
"437",-76.9758609188299,38.8514434362249,492,"pow_579","His Church","","CHRISTIAN","2000 STANTON TERRACE SE",302452,402095.54,131514.57
"438",-76.9850052698307,38.9136391477873,493,"pow_580","Masjid of Ivy City","","ISLAM","2001 GALLAUDET STREET NE",286578,401300.65,138418.6
"439",-77.0069898263915,38.9172129664896,494,"pow_581","Franklin P Nash United Methodist","","CHRISTIAN","2001 LINCOLN ROAD NE",286579,399394.02,138815.24
"440",-77.0039798051035,38.9403803259429,495,"pow_582","St Josaphat's Ukranian Catholic Seminary","","CHRISTIAN","201 TAYLOR STREET NE",286591,399655.17,141387
"441",-77.0300126509394,38.9288965387663,496,"pow_623","13th Street Church Of Christ","http://www.churches-of-christ.net/usa/dc_churches.html","CHRISTIAN","3100 13TH STREET NW",231343,397397.84,140112.62
"442",-76.9754598169885,38.8942337183198,497,"pow_624","St Benedict The Moor Catholic Church","","CHRISTIAN","320 21ST STREET NE",287504,402129.08,136264.62
"443",-77.0163866239112,38.9050534668163,498,"pow_625","First Tabernacle","","CHRISTIAN","401 NEW YORK AVENUE NW",289318,398578.86,137465.54
"444",-77.0344157692938,38.9773682010406,499,"pow_626","Our Lady Of Lebanon Maronite","http://ololdc.org/parish/","CHRISTIAN","7164 ALASKA AVENUE NW",259410,397018.08,145493.55
"445",-77.0119747500957,38.9094621476888,500,"pow_627","Faith and Hope Full Gospel Church","","CHRISTIAN","90 P STREET NW",236937,398961.6,137954.88
"446",-76.991774390813,38.8789066230984,6,"pow_6","Calvary Christian","http://calvarychristian-dc.org","CHRISTIAN","909 11TH STREET SE",81995,400713.93,134562.94
"447",-77.0226837027425,38.89940336322,51,"pow_59","Calvary Burmese Baptist Church","","CHRISTIAN","755 8TH STREET NW",295164,398032.51,136838.45
"448",-77.0255683039355,38.8985507565417,501,"pow_628","First Congregational United Church of Christ","http://www.firstuccdc.org/","CHRISTIAN","945 G STREET NW",278832,397782.26,136743.87
"449",-76.9720489885744,38.9201936624028,502,"pow_629","First Christ Apostolic Church","","CHRISTIAN","2130 24TH PLACE NE",51299,402424.09,139146.47
"450",-76.9705431570767,38.868672085784,503,"pow_630","Mount Calvary Evangelistic","","CHRISTIAN","2504 NAYLOR ROAD SE",46538,402556.52,133427.21
"451",-77.0184511370361,38.9732867569713,504,"pow_631","New Testament Church","","CHRISTIAN","400 BUTTERNUT STREET NW",259597,398401.32,145040.07
"452",-77.0126371988744,38.8298061364811,505,"pow_632","Living Word Church","http://www.livingworddc.org/","CHRISTIAN","4101 MARTIN LUTHER KING JR AVENUE SW",26841,398902.92,129112.48
"453",-76.9904898386072,38.8832266793658,506,"pow_633","Holy Temple Church Of Christ","http://htconline.org/","CHRISTIAN","439 12TH STREET SE",152297,400825.34,135042.51
"454",-76.9379068387097,38.8944023934132,507,"pow_634","Grace Apostolic Church","http://www.graceapostolicchurch.net/","CHRISTIAN","4417 DIX STREET NE",21977,405386.82,136284.89
"455",-77.0369036435908,38.9484836471405,508,"pow_635","Capital Spanish 7th Day","http://capitalspanish22.adventistchurchconnect.org/","CHRISTIAN","4800 16TH STREET NW",258743,396801.21,142287.18
"456",-76.9325695905962,38.9031792570291,509,"pow_636","St Rose Pentecostal","http://www.stroseuhca.com/tp60/Default.asp?ID=300146","CHRISTIAN","4816 SHERIFF ROAD NE",17058,405849.11,137259.52
"457",-76.9929560685373,38.948557182885,510,"pow_637","Faith United Church Of Christ","http://www.faithuccdc.com/","CHRISTIAN","4900 10TH STREET NE",288295,400610.8,142294.72
"458",-77.0226837027425,38.89940336322,52,"pow_60","Calvary Hispanic Baptist Church","","CHRISTIAN","755 8TH STREET NW",295164,398032.51,136838.45
"459",-77.0232919950197,38.9003230872344,511,"pow_638","Greater New Hope Baptist","http://gnhbc.org/Home.aspx","CHRISTIAN","816 8TH STREET NW",243191,397979.77,136940.56
"460",-76.9600899785076,38.8933395415924,512,"pow_639","Varick Memorial AME Zion","http://www.varickamez.org/","CHRISTIAN","255 ANACOSTIA AVENUE NE",46251,403462.47,136165.83
"461",-76.9946958688225,38.8594914195103,513,"pow_640","Campbell AME","","CHRISTIAN","2562 MARTIN LUTHER KING JR AVENUE SE",278182,400460.56,132407.69
"462",-77.0549757733185,38.9091499390034,514,"pow_641","Jerusalem Baptist","","CHRISTIAN","2600 P STREET NW",272387,395232,137921.59
"463",-76.9622350709431,38.9279446356039,515,"pow_642","Mount Horeb Baptist Church FCU","http://www.mthoreb.org/","CHRISTIAN","2914 BLADENSBURG ROAD NE",43308,403274.79,140007.2
"464",-76.999379326126,38.8437972228412,516,"pow_643","Temple Missionary Baptist","http://templemissionary.com/","CHRISTIAN","3105 MARTIN LUTHER KING JR AVENUE SE",150619,400054.08,130665.51
"465",-77.0360827272056,38.934558345737,517,"pow_644","Trinity AME Zion Church","","CHRISTIAN","3505 16TH STREET NW",234593,396871.76,140741.32
"466",-77.0776330857881,38.9468576973528,518,"pow_645","Agape Baptist Church","http://agapechurchdc.com/","CHRISTIAN","3920 ALTON PLACE NW",222948,393270.43,142108.9
"467",-77.03599451354,38.944421014775,519,"pow_647","Mosaic a Church of the Nazarene","http://mosaicchurchdc.org/directions.html","CHRISTIAN","4401 16TH STREET NW",255452,396879.84,141836.16
"468",-77.0359938784978,38.9447625191048,520,"pow_648","Iglesia Pentecostal Emmanuel","","CHRISTIAN","4411 16TH STREET NW",255453,396879.91,141874.07
"469",-76.9986463964449,38.8907895043415,53,"pow_61","Capitol Hill Baptist Church","http://www.capitolhillbaptist.org","CHRISTIAN","525 A STREET NE",150955,400117.63,135882
"470",-77.0357600628227,38.9454674892013,521,"pow_649","Simpson-Hamline United Methodist","","CHRISTIAN","4501 16TH STREET NW",255485,396900.21,141952.32
"471",-76.9305856337404,38.8868099752775,522,"pow_650","First Baptist Church of Marshall Heights","","CHRISTIAN","4934 B STREET SE",288359,406022.58,135442.53
"472",-77.031649079209,38.9575433651264,523,"pow_651","Fellowship Baptist Church","http://fellowshipbaptistchurchdc.org/","CHRISTIAN","5605 COLORADO AVENUE NW",257882,397257.05,143292.72
"473",-76.997044202641,38.843013181949,524,"pow_652","Rehoboth Baptist","","CHRISTIAN","621 ALABAMA AVENUE SE",3799,400256.8,130578.48
"474",-76.9959792289338,38.8580978674732,525,"pow_653","Holy Temple Church","","CHRISTIAN","2635 MARTIN LUTHER KING JR AVENUE SE",278199,400349.18,132252.99
"475",-77.0222933490101,38.9384616626761,526,"pow_655","First Baptist","http://www.1fbc.org/","CHRISTIAN","712 RANDOLPH STREET NW",285384,398067.43,141174.24
"476",-76.9917903530786,38.9004448423661,527,"pow_656","Douglas Memorial Methodist Church","","CHRISTIAN","800 11TH STREET NE",79534,400712.33,136953.85
"477",-77.0303595109288,38.9870155053661,528,"pow_657","St Mary's Baptist Church","http://stmarys-baptist.org/","CHRISTIAN","8008 EASTERN AVENUE NW",256945,397369.91,146564.37
"478",-77.0187349659986,38.965172627764,529,"pow_659","Albright Memorial United Methodist","","CHRISTIAN","411 RITTENHOUSE STREET NW",249042,398376.54,144139.33
"479",-77.0152619384041,38.9189191673374,530,"pow_660","True Grace Church of Jesus Christ of the Pentecostal Faith","","CHRISTIAN","205 V STREET NW",229527,398676.67,139004.73
"480",-77.0008529132965,38.8873977647341,54,"pow_62","Capitol Hill Presbyterian","http://www.capitolhillpreschurch.org/","CHRISTIAN","201 4TH STREET SE",278032,399926.2,135505.49
"481",-77.0209070224916,38.8829882741979,531,"pow_661","St Dominics Catholic Church","http://www.stdominicchurch.org/","CHRISTIAN","630 E STREET SW",2937,398186.21,135016.21
"482",-76.9924212999436,38.862410833301,532,"pow_662","Bethuel Temple Church Of Christ","http://www.bethueltemple.com/index_dc.htm","CHRISTIAN","2406 MARTIN LUTHER KING JR AVENUE SE",47746,400657.95,132731.78
"483",-76.9717630315621,38.8726602286683,533,"pow_663","Grace Memorial Baptist","","CHRISTIAN","2407 MINNESOTA AVENUE SE",47763,402450.52,133869.89
"484",-76.9716794580651,38.8689508168222,534,"pow_664","True United Baptist","","CHRISTIAN","2417 NAYLOR ROAD SE",152101,402457.9,133458.12
"485",-76.9862651050907,38.8542316123364,535,"pow_665","Universal Holiness Church","","CHRISTIAN","2426 ELVANS ROAD SE",287048,401192.38,131823.89
"486",-76.9945881022976,38.8630472184003,536,"pow_666","Revival Temple","http://revivaltemplechurch.org/welcome.htm","CHRISTIAN","2431 SHANNON PLACE SE",47190,400469.89,132802.41
"487",-77.0008331492379,38.9221410884411,537,"pow_667","Verdadera Fe Baptist Church","","CHRISTIAN","2432 4TH STREET NE",47195,399927.95,139362.28
"488",-77.0154484812434,38.9629441965487,538,"pow_668","Peabody St Mennonite","","CHRISTIAN","245 PEABODY STREET NW",295748,398661.32,143891.9
"489",-76.9932531772867,38.8614031123965,539,"pow_669","Bethlehem Baptist","http://bethlehembaptistdc.org/","CHRISTIAN","2458 MARTIN LUTHER KING JR AVENUE SE",287071,400585.76,132619.91
"490",-76.9696934042142,38.8546478293984,540,"pow_670","Faith Tabernacle Church Of Prayer","http://www.faithtabernacleofprayer.org/site/","CHRISTIAN","2465 ALABAMA AVENUE SE",278164,402630.78,131870.44
"491",-77.0191325695315,38.9006271540235,55,"pow_64","Chinese Community Church","http://www.cccdc.com/","CHRISTIAN","500 I STREET NW",238945,398340.58,136974.23
"492",-76.9853383446425,38.8515582470445,541,"pow_672","Brighter Day Ministries - AP Shaw Campus","http://www.aps-ch.org/","CHRISTIAN","2525 12TH PLACE SE",46354,401272.87,131527.14
"493",-76.9673865771669,38.9229925120574,542,"pow_673","Hope Church Of God","","CHRISTIAN","2525 BLADENSBURG ROAD NE",46362,402828.3,139457.3
"494",-77.0184524117421,38.9412232842303,543,"pow_674","Kedus Gabrial and Kedus Yohannes Metmik Ehtiopian Orthodox","http://kedusgabriel.org/","CHRISTIAN","4100 ILLINOIS AVENUE NW",284830,398400.49,141480.73
"495",-76.9919384219089,38.858203867799,544,"pow_677","Macedonia Baptist","","CHRISTIAN","2625 STANTON ROAD SE",287152,400699.9,132264.78
"496",-77.0562584284553,38.907076507354,545,"pow_678","Alexander Memorial Baptist","","CHRISTIAN","2709 N STREET NW",275974,395120.61,137691.49
"497",-76.9678477810429,38.9236652012055,546,"pow_679","Whole Truth Church Of The Lord","","CHRISTIAN","2800 DOUGLAS STREET NE",44685,402788.28,139531.96
"498",-77.0113269734673,38.9564134103613,547,"pow_680","Washington Christian Assembly","","CHRISTIAN","30 KENNEDY STREET NW",245924,399018.43,143166.87
"499",-77.0566823806243,38.9086953730422,548,"pow_682","Anglican Parish of Christ the King","http://www.anglicanparishofchristtheking.org/","CHRISTIAN","2727 O STREET NW",272394,395083.95,137871.22
"500",-76.9872010161976,38.8563768960512,549,"pow_683","St John Christian Methodist Episcopal Church Outreach Center","","CHRISTIAN","2815 STANTON ROAD SE",44422,401111.11,132062.02
"501",-76.9667077172431,38.9333166596565,550,"pow_685","Evangelistic Holy Trinity Church","","CHRISTIAN","2911 RHODE ISLAND AVENUE NE",43463,402886.75,140603.39
"502",-77.0759918813289,38.9313743219529,56,"pow_65","Christ Church Of Washington","","CHRISTIAN","3855 MASSACHUSETTS AVENUE NW",222182,393411.27,140389.99
"503",-76.9314972908835,38.8981518772849,551,"pow_687","Pilgrim Land Christian Center for All People","","CHRISTIAN","4901 NANNIE HELEN BURROUGHS AVENUE NE",288300,405942.54,136701.51
"504",-76.9908183996804,38.9273610520804,552,"pow_688","Gate Of Heaven Holy Church","","CHRISTIAN","2932 12TH STREET NE",150561,400796.34,139941.78
"505",-77.0017988445532,38.8911477613415,553,"pow_689","Faith Tabernacle United Holy Church","http://faithtabernacledc.org/","CHRISTIAN","300 A STREET NE",42712,399844.14,135921.77
"506",-77.0164067240424,38.9563448854754,554,"pow_690","Calvary Life Center","","CHRISTIAN","304 KENNEDY STREET NW",249494,398578.14,143159.33
"507",-77.0015818487589,38.9143111299697,555,"pow_691","First Jericho Baptist","","CHRISTIAN","304 S STREET NE",41421,399863.01,138493.09
"508",-76.9634546039271,38.9215191181975,556,"pow_692","Victory Christian Baptist Church","","CHRISTIAN","3100 ADAMS STREET NE",40688,403169.33,139293.87
"509",-77.0061056619826,38.8300563757626,557,"pow_693","Southeast Baptist Tabernacle","","CHRISTIAN","4101 1ST STREET SE",276621,399470.05,129140.2
"510",-76.9811615648783,38.9295306279123,558,"pow_694","Concord Baptist","","CHRISTIAN","3108 17TH STREET NE",289762,401633.64,140182.75
"511",-76.9625786366672,38.863100983516,559,"pow_695","Willing Heart Community","","CHRISTIAN","3110 W STREET SE",40366,403247.95,132809.03
"512",-76.9909959779532,38.9293786578588,560,"pow_696","God's Shepherds for Salvation","","CHRISTIAN","3126 12TH STREET NE",150627,400780.92,140165.75
"513",-77.0358859686413,38.987735047478,57,"pow_66","First United Church of Jesus Christ, Apostolic","http://www.firstunitedwashington.org/","CHRISTIAN","7901 16TH STREET NW",257008,396891.14,146644.42
"514",-77.0001645822304,38.8428213392601,561,"pow_697","Jerusalem Church Of God in Christ","","CHRISTIAN","3128 MARTIN LUTHER KING JR AVENUE SE",39939,399985.91,130557.18
"515",-77.0370299327705,38.9299936301271,562,"pow_700","Meridan Hill Baptist","http://meridianhill.tripod.com/","CHRISTIAN","3146 16TH STREET NW",236414,396789.43,140234.63
"516",-77.0639655078567,38.9502110200717,563,"pow_701","Capital Memorial Seventh Day","http://www.capitalmemorial.org/","CHRISTIAN","3150 CHESAPEAKE STREET NW",284592,394455.49,142480.23
"517",-77.0382742313731,38.9304202231871,564,"pow_702","Community of Christ Lutheran Church","http://www.cofcdc.org/","CHRISTIAN","3166 MOUNT PLEASANT STREET NW",218153,396681.56,140282.03
"518",-76.9119799021485,38.8934487740867,565,"pow_703","New True Way Church","","CHRISTIAN","317 62ND STREET NE",39143,407636.1,136180.88
"519",-77.0010777499233,38.9153013320202,566,"pow_704","Grace Fellowship Baptist Mission","","CHRISTIAN","319 T STREET NE",39116,399906.73,138603.01
"520",-77.0200758990512,38.9427038895035,567,"pow_705","Petworth United Methodist Church","","CHRISTIAN","32 GRANT CIRCLE NW",247538,398259.78,141645.12
"521",-77.02623375282,38.9306719053379,568,"pow_707","Greater Harvest Baptist","","CHRISTIAN","3231 SHERMAN AVENUE NW",242951,397725.56,140309.6
"522",-76.9215264306575,38.8939904044007,569,"pow_708","Evergreen Baptist Church","","CHRISTIAN","325 55TH STREET NE",150659,406807.87,136240.25
"523",-76.9577375243742,38.8847765204706,570,"pow_709","Mt. Enon Missionary Baptist Church","","CHRISTIAN","329 34TH STREET SE",37224,403666.99,135215.36
"524",-77.0781825119746,38.9662952815247,58,"pow_68","Chevy Chase Baptist Church","http://www.ChevyChaseBaptist.com","CHRISTIAN","5671 WESTERN AVENUE NW",264763,393224.65,144266.69
"525",-76.992276324627,38.9308211601426,571,"pow_710","Immanuel Bible Assembly","","CHRISTIAN","3303 10TH STREET NE",289590,400669.89,140325.87
"526",-76.983386418988,38.8942577254607,572,"pow_711","New Abundant Life Missionary Baptist","","CHRISTIAN","331 15TH STREET NE",36934,401441.44,136267.13
"527",-76.9906286659195,38.9310407523319,573,"pow_712","True Pentescostal Church INC","","CHRISTIAN","3311 12TH STREET NE",36785,400812.75,140350.26
"528",-77.03066237097,38.9344312549073,574,"pow_713","True Gospel Church of God, Inc.","","CHRISTIAN","3497 HOLMEAD PLACE NW",230686,397341.71,140727.04
"529",-76.971455835964,38.9307899142355,575,"pow_714","Rising Sun Baptist","http://risingsundc.org/","CHRISTIAN","3126 SOUTH DAKOTA AVENUE NE",39911,402475.16,140322.76
"530",-77.0006330543486,38.9588958239741,576,"pow_715","Faith Monravian Church","http://www.faithmoravianchurch.org/","CHRISTIAN","405 RIGGS ROAD NE",27347,399945.33,143442.38
"531",-76.9997524336694,38.8428492653099,577,"pow_716","Brighter Day Ministries - Congress Heights Campus","http://www.aps-ch.org/","CHRISTIAN","421 ALABAMA AVENUE SE",25545,400021.69,130560.28
"532",-76.936396445854,38.8727775747335,578,"pow_717","Brighter Day Ministries - Bradbury Heights Campus","http://www.aps-ch.org/","CHRISTIAN","4323 BOWEN ROAD SE",278493,405519.52,133884.46
"533",-76.9594940620544,38.8616035656078,579,"pow_718","Holy Comforter Luthern","http://www.luther95.com/LCHC-WDC/","CHRISTIAN","3319 ALABAMA AVENUE SE",36907,403515.73,132642.92
"534",-77.0009482048071,38.8851585504409,580,"pow_719","Washington City Church of the Brethren","","CHRISTIAN","337 NORTH CAROLINA AVENUE SE",301926,399917.93,135256.92
"535",-77.0781825119746,38.9662952815247,59,"pow_69","La Mission Internationale Pour la Grande Moisson Baptist","","CHRISTIAN","5671 WESTERN AVENUE NW",264763,393224.65,144266.69
"536",-76.9797987209688,38.9323553160226,581,"pow_721","Progressive Pentecostal (Purity)","","CHRISTIAN","3406 18TH STREET NE",35162,401751.74,140496.34
"537",-76.9569745346586,38.8862823536915,582,"pow_722","Edgewood Baptist","http://www.edgewoodbaptistchurchdc.org/","CHRISTIAN","3408 C STREET SE",35209,403733.11,135382.55
"538",-77.0305548077451,38.9326565568838,583,"pow_723","The Church of Jesus Christ of Latter Day Saints","","CHRISTIAN","3423 HOLMEAD PLACE NW",242943,397350.97,140530.03
"539",-77.0046654593397,38.8404146386919,584,"pow_724","Resurrection Baptist","http://resurrectionbc.com/","CHRISTIAN","3501 MARTIN LUTHER KING JR AVENUE SE",34144,399595.16,130290.03
"540",-76.9798638408218,38.933736480688,585,"pow_725","Resurrection Church of God in Christ","","CHRISTIAN","3516 18TH STREET NE",33828,401746.06,140649.66
"541",-77.0360409493216,38.9500225302186,586,"pow_727","The Church of Jesus Christ of Latter Day Saints-Washington DC 3rd Ward","","CHRISTIAN","4901 16TH STREET NW",255779,396876.06,142457.98
"542",-76.9958551359111,38.8820432907376,587,"pow_728","The Church of Jesus Christ of Latter Day Saints","","CHRISTIAN","522 7TH STREET SE",303286,400359.83,134911.11
"543",-76.9829580613024,38.9324023021936,588,"pow_730","St Paul Temple Church Of God","","CHRISTIAN","3420 16TH STREET NE",289759,401477.81,140501.5
"544",-77.0294551530268,38.9322487629019,589,"pow_731","Mt Rona Missionary Baptist","http://mtronachurch.org/site/cs/Index.asp","CHRISTIAN","3431 13TH STREET NW",230950,397446.3,140484.73
"545",-77.017450569806,38.9175033819653,590,"pow_733","Sons and Daughters In Christ AME Zion","","CHRISTIAN","345 ELM STREET NW",229646,398486.84,138847.6
"546",-77.0757452225566,38.9672365362586,60,"pow_70","Chevy Chase Presbyterian","http://www.chevychasepc.org/","CHRISTIAN","1 CHEVY CHASE CIRCLE NW",283905,393435.96,144371
"547",-77.0098942400999,38.9703305699613,591,"pow_734","Van Buren United Methodist Church","http://www.vanburenchurch.org/","CHRISTIAN","35 VAN BUREN STREET NW",245318,399142.78,144711.79
"548",-77.0693497536592,38.9253254941978,592,"pow_736","Community of Christ Church","http://www.cofchrist.org/","CHRISTIAN","3526 MASSACHUSETTS AVENUE NW",284732,393986.67,139718.06
"549",-76.9553115956111,38.8871556325064,593,"pow_737","Full Gospel Church","","CHRISTIAN","3536 MINNESOTA AVENUE SE",33282,403877.34,135479.56
"550",-76.9559716561664,38.8640592468723,594,"pow_738","Christian Praise","","CHRISTIAN","3628 ALABAMA AVENUE SE",32442,403821.31,132915.66
"551",-77.0064009778749,38.8380133531594,595,"pow_739","Unity Of Love Praise Temple","","CHRISTIAN","3703 MARTIN LUTHER KING JR AVENUE SE",32004,399444.47,130023.48
"552",-77.0239804083109,38.9371965637243,596,"pow_740","Temple Of Truth Community Baptist","","CHRISTIAN","3722 NEW HAMPSHIRE AVENUE NW",284789,397921.13,141033.84
"553",-76.9775023771637,38.9280907227205,597,"pow_741","International House Of Prayer","","CHRISTIAN","1915 RHODE ISLAND AVENUE NE",286534,401950.96,140022.98
"554",-77.0324682744185,38.9383667638231,598,"pow_742","Capital Wesleyan Inner City Church","","CHRISTIAN","3831 14TH STREET NW",225154,397185.29,141163.97
"555",-77.0285003298116,38.9389542388234,599,"pow_743","St. Stephen Chruch of God in Christ","","CHRISTIAN","3900 KANSAS AVENUE NW",223593,397529.32,141229.07
"556",-76.9906170269206,38.9379811984594,600,"pow_744","Little Rock Faith Baptist","","CHRISTIAN","3926 12TH STREET NE",29095,400813.68,141120.71
"557",-77.036936757829,38.9331336857889,7,"pow_7","Canaan Baptist","http://canaanbapt.com/","CHRISTIAN","1607 MONROE STREET NW",233626,396797.65,140583.2
"558",-77.0650746019001,38.9101443167987,61,"pow_106","Georgetown Lutheran Church","http://www.georgetownlutheran.com/","CHRISTIAN","1556 WISCONSIN AVENUE NW",300435,394356.18,138032.55
"559",-77.0324473299879,38.9394863206634,601,"pow_745","Mt Carmel House Of Prayer","","CHRISTIAN","3929 14TH STREET NW",224891,397187.15,141288.25
"560",-77.0212003565816,38.9396544742769,602,"pow_746","Nazareth Baptist Church Study","","CHRISTIAN","3935 7TH STREET NW",247678,398162.22,141306.63
"561",-77.032465514241,38.9399042104029,603,"pow_747","Iglesia Primitiva Pentecostal","","CHRISTIAN","4001 14TH STREET NW",255304,397185.59,141334.64
"562",-76.9824581231848,38.8839630858042,604,"pow_748","Vineyard Baptist Church","","CHRISTIAN","401 16TH STREET SE",28129,401522.19,135124.36
"563",-77.0003451457353,38.8791246449793,605,"pow_749","St Paul Aump","","CHRISTIAN","401 I STREET SE",288070,399970.25,134587.11
"564",-76.9368502459022,38.8933618104399,606,"pow_485","Temple United Church","","CHRISTIAN","4510 BROOKS STREET NE",20398,405478.56,136169.44
"565",-76.9367928844966,38.9025503124667,607,"pow_486","New Birth Prayer Baptist Church","","CHRISTIAN","4515 SHERIFF ROAD NE",20331,405482.83,137189.44
"566",-76.9225890672867,38.8989312130072,608,"pow_487","New Mt Carmel Freewill Baptist","","CHRISTIAN","5368 GAY STREET NE",9476,406715.22,136788.64
"567",-76.9222785165803,38.8997645507942,609,"pow_488","New Zion Pentecostal","","CHRISTIAN","5425 JAMES PLACE NE",150990,406742.08,136881.17
"568",-76.9370540286696,38.887893565072,610,"pow_489","Gospel Ark Temple","","CHRISTIAN","4551 BENNING ROAD SE",19608,405461.3,135562.41
"569",-76.9379068387097,38.8944023934132,62,"pow_107","Grace Apostolic","http://www.graceapostolicchurch.net/","CHRISTIAN","4417 DIX STREET NE",21977,405386.82,136284.89
"570",-77.0008544365862,38.918274984534,611,"pow_490","Greater Victory Baptist","","CHRISTIAN","2100 4TH STREET NE",51876,399926.1,138933.11
"571",-77.0007012580413,38.8435689483196,612,"pow_491","Morning Star Baptist","http://www.morningstarchurch-dc.org/","CHRISTIAN","3204 BROTHERS PLACE SE",278345,399939.32,130640.17
"572",-77.0482434149223,38.9155305483858,613,"pow_493","Fazal Mosque","","ISLAM","2141 LEROY PLACE NW",235055,395816.29,138629.56
"573",-76.9741354194919,38.8711047563857,614,"pow_496","Immanuel New Life Bible Church","","CHRISTIAN","2214 NAYLOR ROAD SE",290129,402244.7,133697.16
"574",-76.9741354194919,38.8711047563857,615,"pow_497","Little Rock Church of Deliverance","","CHRISTIAN","2214 NAYLOR ROAD SE",290129,402244.7,133697.16
"575",-76.9735299401796,38.8724369638375,616,"pow_499","Galilee Baptist Church","http://galileebaptistchurch.net/","CHRISTIAN","2252 MINNESOTA AVENUE SE",49510,402297.2,133845.06
"576",-76.9899078526946,38.8641199003379,617,"pow_500","Bethel Christian Fellowship","http://bethelchristianfellowshipdc.org/2.html","CHRISTIAN","2220 MARTIN LUTHER KING JR AVENUE SE",50017,400876.07,132921.52
"577",-76.9824498173892,38.8629045028299,618,"pow_501","Little Fountain Church","","CHRISTIAN","2224 16TH STREET SE",49871,401523.36,132786.7
"578",-76.9728983858701,38.9247719826647,619,"pow_502","Woodridge Bible Way Church","","CHRISTIAN","2226 EVARTS STREET NE",49926,402350.28,139654.68
"579",-77.0503858059975,38.8993529004751,620,"pow_503","Hillel Jewish Center","http://gw.hillel.org/home.aspx","JEWISH","2300 H STREET NW",242352,395629.5,136833.81
"580",-77.0620252480145,38.9035814997797,63,"pow_108","Grace Episcopal Church","http://www.gracedc.org/","CHRISTIAN","1041 WISCONSIN AVENUE NW",273796,394620.16,137303.84
"581",-76.9733103298586,38.8581761425249,621,"pow_504","Independent Church Of God","","CHRISTIAN","2302 AINGER PLACE SE",286787,402316.72,132262.01
"582",-77.0402543368652,38.9207926377239,622,"pow_507","King Emmanuel Baptist","","CHRISTIAN","2324 ONTARIO ROAD NW",284359,396509.4,139213.36
"583",-77.0108435373559,38.956265990906,623,"pow_508","Triumphant Christian Chruch","","CHRISTIAN","24 KENNEDY STREET NW",245911,399060.33,143150.5
"584",-76.9716929769808,38.9258030593767,624,"pow_509","Second New St Paul Baptist","http://snspbc.org/","CHRISTIAN","2400 FRANKLIN STREET NE",287025,402454.77,139769.17
"585",-76.9728060334409,38.9304522443775,625,"pow_510","Abundant Life Church of God in Christ","http://www.abundantlifecogicdc.org/","Christian","2373 RHODE ISLAND AVENUE NE",47915,402358.1,140285.24
"586",-76.981647727353,38.8576412087408,626,"pow_511","Our Lady-Perpetual Help Church","http://www.josephites.org/parish/dc/olph/","CHRISTIAN","1600 MORRIS ROAD SE",286329,401593.09,132202.45
"587",-76.9822041690687,38.9409895314206,627,"pow_512","Michigan Park Christian","http://www.michiganparkcc.com/","CHRISTIAN","1600 TAYLOR STREET NE",286330,401542.99,141454.77
"588",-76.9734057164754,38.8705754386966,628,"pow_513","Charity Baptist","","CHRISTIAN","1601 23RD STREET SE",60340,402308.04,133638.42
"589",-76.9819497480632,38.8674834940129,629,"pow_514","The Community Church","http://www.ccwdc.org/","CHRISTIAN","1610 T STREET SE",295127,401566.66,133295.01
"590",-77.0361237560652,38.9117326842691,630,"pow_515","Church Of The Holy City (Swendenborg)","http://www.swedenborgcenter.org/","CHRISTIAN","1611 16TH STREET NW",301850,396867.2,138207.48
"591",-76.9938628005801,38.8440202925592,64,"pow_109","Greater Fellowship Full Gospel Baptist","http://www.greaterfellowshipdc.org/home.aspx","CHRISTIAN","814 ALABAMA AVENUE SE",80264,400532.98,130690.29
"592",-76.981532594308,38.927695963975,631,"pow_516","Saint Paul Baptist","","CHRISTIAN","1611 BRENTWOOD ROAD NE",59909,401601.51,139979.08
"593",-77.0316601722562,38.9116100242863,632,"pow_517","John Wesley AME Zion Church","","CHRISTIAN","1615 14TH STREET NW",218363,397254.32,138193.72
"594",-77.0148274225415,38.9116224715753,633,"pow_518","Mount Sinai Baptist","http://www.msbcdc.org/","CHRISTIAN","1615 3RD STREET NW",279261,398714.22,138194.73
"595",-76.9607514051676,38.8698703866684,634,"pow_519","Muhammads Mosque #4","http://www.noidc.org/","ISLAM","3160 PENNSYLVANIA AVENUE SE",39329,403406.21,133560.55
"596",-77.0374495495717,38.9616977018264,635,"pow_520","Sufism Reoriented","","CHRISTIAN","1615 MANCHESTER LANE NW",256326,396754.49,143754.08
"597",-76.9811081927192,38.926386987856,636,"pow_522","Power of Liberty Ministries","","CHRISTIAN","1615 RHODE ISLAND AVENUE NE",59686,401638.34,139833.78
"598",-76.981708519305,38.9292928052694,637,"pow_525","Church Of Our Saviour","","CHRISTIAN","1616 IRVING STREET NE",59725,401586.22,140156.34
"599",-76.9724085605138,38.855755818844,638,"pow_750","African American Pentecostal Holiness","","CHRISTIAN","2734 LANGSTON PLACE SE",287224,402395.07,131993.36
"600",-76.970690721272,38.8558792661666,639,"pow_751","Allen Chapel AME Preschool","","CHRISTIAN","2439 AINGER PLACE SE",47016,402544.17,132007.11
"601",-77.023797756955,38.9114331648151,640,"pow_752","Ansaaru Allah Community Church","","","818 RHODE ISLAND AVENUE NW",225985,397936.22,138173.88
"602",-76.9773760998855,38.8978987087902,65,"pow_110","Greater Mt. Pisgah Baptist Church","","CHRISTIAN","1818 GALES STREET NE",55408,401962.74,136671.42
"603",-77.0000274150116,38.9000215575929,641,"pow_753","Apostolic Evangelical Church of Jesus Christ","","CHRISTIAN","413 H STREET NE",26320,399997.82,136906.83
"604",-76.9112584052692,38.8940153053958,642,"pow_754","Apostolic Evangelical Church of Jesus Christ","","CHRISTIAN","354 EASTERN AVENUE NE",33319,407698.63,136243.83
"605",-76.9920326899595,38.9354337564738,643,"pow_755","Archdiocese for the Military Services","","","1025 MICHIGAN AVENUE NE",301956,400690.97,140837.91
"606",-77.0196246093759,38.95597910441,644,"pow_756","Ark Foundation Church","","CHRISTIAN","5421 5TH STREET NW",248727,398299.22,143118.78
"607",-77.0247326558854,38.9411469948684,645,"pow_757","Assembly Of Christian Church","","CHRISTIAN","4101 9TH STREET NW",252497,397856.03,141472.39
"608",-77.0060963355357,38.8314311581657,646,"pow_758","Atlantic Street Baptist Church","","CHRISTIAN","30 ATLANTIC STREET SE",42646,399470.87,129292.81
"609",-77.0356720460087,38.9184956513488,647,"pow_759","Augustana Lutheran Church","","CHRISTIAN","1511 V STREET NW",242037,396906.67,138958.21
"610",-77.0353569495311,38.9709269430372,648,"pow_760","Aum Spirtual Science","","","1437 WHITTIER STREET NW",259460,396936.25,144778.54
"611",-77.0012053094743,38.9579607619383,649,"pow_761","Bless the People Church","","CHRISTIAN","5575 SOUTH DAKOTA AVENUE NE",288679,399895.73,143338.58
"612",-77.0237425523845,38.9547978973066,650,"pow_762","Brightwood Park Methodist Church","","CHRISTIAN","5315 8TH STREET NW",250213,397942.26,142987.74
"613",-77.0227607297538,38.961602573381,66,"pow_112","The Church of the Holy Comforter St Andrews Parish","http://www.holycomforterdc.org/","CHRISTIAN","701 OGLETHORPE STREET NW",250438,398027.55,143743.1
"614",-76.9853016356198,38.8922080371475,651,"pow_763","Brown Memorial AME","http://rhatiamays.wix.com/brownmemorialame","CHRISTIAN","1400 CONSTITUTION AVENUE NE",65277,401275.33,136039.57
"615",-76.9868821530515,38.9320139198085,652,"pow_764","Bunton Institutional CME","","","1348 LAWRENCE STREET NE",289604,401137.58,140458.33
"616",-76.9691887696067,38.8605674948625,653,"pow_765","Cathedral Assembly of Reconciliation","","CHRISTIAN","2503 GOOD HOPE ROAD SE",287084,402674.36,132527.58
"617",-77.0734720783304,38.9293462701991,654,"pow_766","Cathedral Court","","CHRISTIAN","3701 MASSACHUSETTS AVENUE NW",221547,393629.57,140164.68
"618",-77.0351204687204,38.9029598491292,655,"pow_767","Catholoc Information Center","","","1501 K STREET NW",279201,396953.84,137233.59
"619",-77.0330129207151,38.9478145946313,656,"pow_768","Celestial Church Of Christ","","CHRISTIAN","4720 14TH STREET NW",255643,397138.45,142212.78
"620",-76.9684153989276,38.9236386012679,657,"pow_769","Celestial Church Of Christ","","CHRISTIAN","2600 28TH STREET NE",46149,402739.06,139528.99
"621",-77.0250838286422,38.9255594890998,658,"pow_770","Cherubim and Seraphim Church Ayo","","CHRISTIAN","774 GIRARD STREET NW",301933,397825.11,139742.05
"622",-76.9987635717783,38.9004153965722,659,"pow_771","Chester Graham Rescue Mission","","CHRISTIAN","516 H STREET NE",12271,400107.45,136950.55
"623",-77.0349985893609,38.9546064362971,660,"pow_772","Children's Cultural Society","","CHRISTIAN","5308 COLORADO AVENUE NW",255867,396966.61,142966.8
"624",-77.0148517052824,38.8975620510375,67,"pow_113","Holy Rosary Church","http://www.holyrosarychurchdc.org/","CHRISTIAN","595 3RD STREET NW",279834,398711.86,136633.91
"625",-77.0087390889902,38.9097951127309,661,"pow_773","Christian Assembly Baptist","","CHRISTIAN","1501 NORTH CAPITOL STREET NE",62614,399242.24,137991.81
"626",-77.0369374758776,38.9015715512955,662,"pow_774","Christian Science","","CHRISTIAN","900 16TH STREET NW",301936,396796.17,137079.54
"627",-77.0417047808755,38.9227724292415,663,"pow_775","Christian Science Church","","CHRISTIAN","1770 EUCLID STREET NW",235625,396383.72,139433.19
"628",-76.9873629943069,38.8922267454685,664,"pow_776","Church of God Founded by Jesus Christ","","CHRISTIAN","1318 CONSTITUTION AVENUE NE",68044,401096.5,136041.62
"629",-76.9896032445767,38.8646080396869,665,"pow_777","Church of God in Christ Apostolic","","CHRISTIAN","2204 MARTIN LUTHER KING JR AVENUE SE",50616,400902.5,132975.71
"630",-76.9934208682481,38.8608992809806,666,"pow_778","Church Of God Of SE Washington","","CHRISTIAN","2512 SHERIDAN ROAD SE",287088,400571.21,132563.98
"631",-76.9537030969292,38.8669489898266,667,"pow_779","Church Of Jesus  Christ","","CHRISTIAN","3456 PENNSYLVANIA AVENUE SE",150712,404018.03,133236.54
"632",-77.032463208514,38.9320544676105,668,"pow_780","Church of Jesus Christ - LDS","","CHRISTIAN","3417 14TH STREET NW",230871,397185.48,140463.25
"633",-77.0273247160175,38.9118229047891,669,"pow_781","Church of Love Faith Center","","CHRISTIAN","1618 11TH STREET NW",242892,397630.34,138217.23
"634",-77.0330731472822,38.9475854069435,670,"pow_782","Church Of Love Faith CTR","","CHRISTIAN","4708 14TH STREET NW",255667,397133.22,142187.34
"635",-77.0696741060136,38.9069792835683,68,"pow_114","Holy Trinity Catholic Church","http://www.trinity.org/","CHRISTIAN","3513 N STREET NW",294302,393956.99,137681.5
"636",-77.075819778581,38.9301565098843,671,"pow_783","Church of the Annuciation","","CHRISTIAN","3810 MASSACHUSETTS AVENUE NW",263608,393426.08,140254.79
"637",-77.075819778581,38.9301565098843,672,"pow_784","Church of the Annunciation","","","3810 MASSACHUSETTS AVENUE NW",263608,393426.08,140254.79
"638",-76.9999519050245,38.9004647688947,673,"pow_785","Church Of The Gospel Ministry","","CHRISTIAN","412 H STREET NE",26364,400004.37,136956.03
"639",-77.0291513561044,38.9028956400666,674,"pow_786","Cornerstone Family Ministries","","CHRISTIAN","1275 K STREET NW",243281,397471.6,137226.28
"640",-77.0033254608947,38.8913968093777,675,"pow_787","Cosmic Church","","CHRISTIAN","113 2ND STREET NE",285880,399711.7,135949.42
"641",-77.0070043801254,38.8834265721639,676,"pow_788","Council on American-Islamic Relations  (CAIR)","","","453 NEW JERSEY AVENUE SE",156354,399392.47,135064.68
"642",-77.0070043801254,38.8834265721639,677,"pow_789","Council on American-Islamic Relations  (CAIR)","","ISLAM","453 NEW JERSEY AVENUE SE",156354,399392.47,135064.68
"643",-77.0211058168953,38.9401930071982,678,"pow_790","Covenant Baptist UCC","","","4009 NEW HAMPSHIRE AVENUE NW",247628,398170.43,141366.41
"644",-76.9746977679299,38.9292863631428,679,"pow_791","Daughter Of Zion Baptist","","CHRISTIAN","2964 MILLS AVENUE NE",42596,402194.11,140155.77
"645",-77.0325655759353,38.9029088813128,680,"pow_792","DCPCA","","","1411 K STREET NW",218114,397175.45,137227.85
"646",-76.9981337243067,38.8938313544669,69,"pow_115","Imani Temple","http://www.imanitemple.com/history.htm","CHRISTIAN","609 MARYLAND AVENUE NE",151060,400162.1,136219.67
"647",-76.9902232531796,38.860518000838,681,"pow_793","Deliverance Prayer Chapel","","CHRISTIAN","1337 DEXTER TERRACE SE",66855,400848.74,132521.68
"648",-76.9105906042294,38.8935780701825,682,"pow_794","Deliverance Temple","","CHRISTIAN","346 EASTERN AVENUE NE",34202,407756.61,136195.35
"649",-77.0255515257503,38.9260521427703,683,"pow_795","Deliverence Church of God","","CHRISTIAN","2803 SHERMAN AVENUE NW",232512,397784.57,139796.75
"650",-77.0084500449213,38.9011015343072,684,"pow_796","DHCF","","","899 NORTH CAPITOL STREET NE",308942,399267.22,137026.75
"651",-77.0069658644426,38.9091816735653,685,"pow_797","DHS","","","64 NEW YORK AVENUE NE",289616,399396.03,137923.7
"652",-76.9934751153263,38.9014727122335,686,"pow_798","Doing It God's Way Mission","","CHRISTIAN","901 9TH STREET NE",81684,400566.18,137067.94
"653",-77.0221985788812,38.9115583352271,687,"pow_799","Door of Hope","","CHRISTIAN","1610 7TH STREET NW",225817,398074.92,138187.74
"654",-77.0361653566089,38.9130514024085,688,"pow_800","Dupont Circle ANC","","","1701 16TH STREET NW",242225,396863.65,138353.87
"655",-76.9744284303202,38.9142922181245,689,"pow_801","Eagle Mountain Evangelistic Church","","CHRISTIAN","1801 BLADENSBURG ROAD NE",56187,402217.93,138491.3
"656",-76.9997146015138,38.8844586024884,690,"pow_802","Ebenezer United Methodist","","CHRISTIAN","420 D STREET SE",25691,400024.96,135179.22
"657",-77.0568577338876,38.9170688110655,70,"pow_116","Islamic Center of Washington DC","http://www.theislamiccenter.com/","ISLAM","2551 MASSACHUSETTS AVENUE NW",218874,395069.32,138800.75
"658",-77.0032356639,38.9014863620006,691,"pow_803","Eden Community Baptist","","CHRISTIAN","901 2ND STREET NE",81677,399719.53,137069.44
"659",-77.0273029958011,38.9532708488884,692,"pow_804","Emmanuel Apostolic Church","","CHRISTIAN","5209 GEORGIA AVENUE NW",251694,397633.6,142818.31
"660",-76.9817612739545,38.886712517991,693,"pow_805","Enter Non-Denominational Church","","CHRISTIAN","1608 MASSACHUSETTS AVENUE SE",60212,401582.59,135429.58
"661",-77.0061647336813,38.829940433692,694,"pow_806","ERCPCP","","","4105 1ST STREET SE",276622,399464.92,129127.33
"662",-76.9621092990537,38.9287186793412,695,"pow_807","Ethiopian Orthodox Tewahdo Church","","","3010 EARL PLACE NE",42221,403285.66,140093.13
"663",-76.9744847143425,38.9303661431032,696,"pow_808","Evangelical Missionary Baptist Church","","CHRISTIAN","2026 JACKSON STREET NE",52405,402212.55,140275.64
"664",-77.0171059007315,38.9107456484806,697,"pow_809","Evangelistic Deliverance Church","","CHRISTIAN","1538 NEW JERSEY AVENUE NW",237389,398516.59,138097.43
"665",-76.9753776154725,38.8561907790715,698,"pow_810","Evening Light Church Of Christ","","CHRISTIAN","2812 BRUCE PLACE SE",44551,402137.35,132041.57
"666",-76.9858962578791,38.8994710163223,699,"pow_811","Faith Bible","","CHRISTIAN","1350 MARYLAND AVENUE NE",149108,401223.62,136845.81
"667",-77.0235103417715,38.9367028242702,700,"pow_812","Faith Deliverance Center","","CHRISTIAN","807 ROCK CREEK CHURCH ROAD NW",228318,397961.87,140979.02
"668",-77.0421012529714,38.9227828268106,8,"pow_8","First Church of Christ, Scientist","http://christiansciencedc.org/church.php?id=dc-1","CHRISTIAN","1782 COLUMBIA ROAD NW",235614,396349.34,139434.36
"669",-76.9893549498708,38.9216876682283,71,"pow_117","Israel Baptist","http://www.israelbaptistchurch.org","CHRISTIAN","1251 SARATOGA AVENUE NE",69666,400923.31,139312
"670",-77.000141544154,38.9000094863056,701,"pow_813","Faith Progressive Sanctified","","CHRISTIAN","409 H STREET NE",27156,399987.92,136905.49
"671",-77.0119329082475,38.9177965763127,702,"pow_814","Faith Temple Church","","CHRISTIAN","2029 1ST STREET NW",227677,398965.35,138880.07
"672",-77.0221489050092,38.9175650135287,703,"pow_815","Gospel Spreading Church","","CHRISTIAN","700 V STREET NW",232290,398079.39,138854.53
"673",-77.0357387598576,38.9124101398514,704,"pow_816","Gospel Spreading Church","","CHRISTIAN","1522 R STREET NW",242231,396900.62,138282.67
"674",-77.0231874311454,38.9105990249267,705,"pow_817","Gospel Spreading Church","","CHRISTIAN","1540 8TH STREET NW",225780,397989.13,138081.27
"675",-77.0391533013757,38.9123873354056,706,"pow_818","Gospel Spreading Church","","CHRISTIAN","1712 R STREET NW",241661,396604.48,138280.26
"676",-77.0123887339499,38.9171468479803,707,"pow_819","Gospel Spreading Church","","CHRISTIAN","101 U STREET NW",227558,398925.81,138807.95
"677",-76.9745521397313,38.871345282288,708,"pow_820","Greater Apostolic Holy Temple","","CHRISTIAN","2203 MINNESOTA AVENUE SE",50594,402208.53,133723.85
"678",-77.0076871011085,38.9075549911584,709,"pow_821","Greater Pentecostal","","CHRISTIAN","33 NEW YORK AVENUE NE",37070,399333.46,137743.13
"679",-77.0077478920564,38.9598338691829,710,"pow_822","Greater St Paul Baptist Church","","CHRISTIAN","5720 SOUTH DAKOTA AVENUE NE",6863,399328.68,143546.54
"680",-77.0211645261496,38.939019576143,72,"pow_118","Israel Metropolitan CME","http://israelcme.org/","CHRISTIAN","557 RANDOLPH STREET NW",247729,398165.31,141236.15
"681",-77.0399253664657,38.9018885633918,711,"pow_823","GWHCC","","","910 17TH STREET NW",236722,396537.01,137114.84
"682",-76.9986721034696,38.9278723566733,712,"pow_824","Hallelujah Catholic Evanglization","","CHRISTIAN","3015 4TH STREET NE",289740,400115.34,139998.5
"683",-77.0367570315786,38.9834042587894,713,"pow_825","Hanafi Madhab Center","","CHRISTIAN","7700 16TH STREET NW",256413,396815.48,146163.69
"684",-76.9974999432729,38.9239075967543,714,"pow_826","Harvest Church Intl","","CHRISTIAN","601 EDGEWOOD STREET NE",289571,400216.99,139558.38
"685",-77.0158633256336,38.9703793677131,715,"pow_827","HBX","","","6609 3RD STREET NW",245120,398625.51,144717.28
"686",-77.0302467851806,38.9039251967522,716,"pow_828","HCD International","","","1307 L STREET NW",240639,397376.62,137340.6
"687",-76.988415094234,38.8671544262874,717,"pow_829","Highway Apostolic Church","","CHRISTIAN","1205 GOOD HOPE ROAD SE",72009,401005.58,133258.39
"688",-77.0008231605249,38.9159721847828,718,"pow_830","Holiness Church-Jesus Christ","","CHRISTIAN","1910 4TH STREET NE",149129,399928.81,138677.48
"689",-76.9834759558511,38.8889121690765,719,"pow_831","Holy Comforter Catholic Convent","","CHRISTIAN","28 15TH STREET SE",301925,401433.78,135673.73
"690",-76.9419113814201,38.8835489053448,720,"pow_832","Holy Congregation Church","","CHRISTIAN","453 CHAPLIN STREET SE",299812,405040.19,135079.84
"691",-77.0572229357543,38.9070299161733,73,"pow_119","Kesher Israel Synagogue","http://www.kesher.org/","JEWISH","2801 N STREET NW",279627,395036.95,137686.37
"692",-77.0282504290888,38.9326812788908,721,"pow_833","Holy Evangelist Church Of God","","CHRISTIAN","3425 11TH STREET NW",284684,397550.77,140532.71
"693",-76.9228889099092,38.891893621559,722,"pow_834","Holy Temple of God","","CHRISTIAN","210 55TH STREET NE",51827,406689.87,136007.39
"694",-77.0007573410772,38.9179714945474,723,"pow_835","Holy Way Of The Cross Church","","CHRISTIAN","331 V STREET NE",307125,399934.52,138899.42
"695",-76.9987635717783,38.9004153965722,724,"pow_836","Holyway Baptist","","CHRISTIAN","516 H STREET NE",12271,400107.45,136950.55
"696",-77.0485678782793,38.9099274061557,725,"pow_837","Hope Christian Church","","CHRISTIAN","1505 22ND STREET NW",225586,395787.82,138007.58
"697",-76.9983102344336,38.8341450145451,726,"pow_838","I Am Church Of God INC","","CHRISTIAN","465 VALLEY AVENUE SE",18480,400146.91,129594.05
"698",-77.0227870731968,38.9277963642075,727,"pow_839","Iglesia de Dios El Jardin Del Eden","","","2917 GEORGIA AVENUE NW",237964,398024.33,139990.31
"699",-77.0276846125417,38.9612364065079,728,"pow_840","Iglesia Evangeleca Fuente","","CHRISTIAN","5915 GEORGIA AVENUE NW",254295,397600.79,143702.57
"700",-77.0293011354061,38.9413963694032,729,"pow_841","Iglesia Pentecostal Assembly of God","","CHRISTIAN","4121 13TH STREET NW",223668,397459.98,141500.19
"701",-77.0324546269149,38.9354986151675,730,"pow_842","Iglesia Pentecostal Unida","","CHRISTIAN","3519 14TH STREET NW",230199,397186.36,140845.58
"702",-77.0316062191948,38.9069442562995,74,"pow_120","Luther Place Memorial Church","http://www.lutherplace.org/","CHRISTIAN","1226 VERMONT AVENUE NW",240613,397258.82,137675.78
"703",-77.0324234437793,38.9371826355019,731,"pow_843","Iglesia Pentencostal Bethel Church","","CHRISTIAN","3701 14TH STREET NW",225289,397189.13,141032.52
"704",-77.0241878277105,38.909421071159,732,"pow_844","Interfaith Conference of Washington","","","1426 9TH STREET NW",243060,397902.33,137950.53
"705",-76.9402036021466,38.9031262105404,733,"pow_845","Joshua's Temple FBC","","CHRISTIAN","4318 SHERIFF ROAD NE",23537,405186.94,137253.17
"706",-76.9920860871924,38.9313197573153,734,"pow_846","Kidane Mehret Ge'es Rite","","","1001 LAWRENCE STREET NE",289589,400686.38,140381.22
"707",-76.9809230990135,38.9035289358028,735,"pow_847","Kingdom Of Zion Baptist","","CHRISTIAN","1037 BLADENSBURG ROAD NE",299833,401654.92,137296.35
"708",-76.9877141379931,38.8980596112316,736,"pow_848","Kingdom Of Zion Baptist","","CHRISTIAN","1313 MARYLAND AVENUE NE",68235,401065.95,136689.11
"709",-77.0160113665687,38.9128100650103,737,"pow_849","Korean Central Presbyterian Church","","CHRISTIAN","319 R STREET NW",237599,398611.56,138326.58
"710",-77.0216667480606,38.9743453935109,738,"pow_850","Kriya Yoga Devotee Center","","","6918 6TH STREET NW",250929,398122.7,145157.65
"711",-77.040755680957,38.9281739721365,739,"pow_851","Kwanzaa Ministries African American Church","","","1729 HOBART STREET NW",236173,396466.29,140032.77
"712",-77.0337260247466,38.9581993066342,740,"pow_852","Ky Vien Pagoda","","","1400 MADISON STREET NW",255969,397077.06,143365.6
"713",-77.0158898613686,38.9103295446624,75,"pow_121","Masjid Muhammad","http://nationsmasjid.com/","ISLAM","1519 4TH STREET NW",237695,398622.05,138051.22
"714",-77.0202898634345,38.8782257366641,741,"pow_853","Leadership Council for Healthy…","","","901 6TH STREET SW",289193,398239.64,134487.52
"715",-77.0238243486177,38.9313236320379,742,"pow_854","Little Temple Church (Faith Temple Sp","","CHRISTIAN","3308 GEORGIA AVENUE NW",233024,397934.49,140381.89
"716",-77.0027130164731,38.8937616130032,743,"pow_855","Madonna House","","","220 C STREET NE",50708,399764.84,136211.93
"717",-76.9943588920752,38.9378416301015,744,"pow_856","Mar Eliya","","","905 QUINCY STREET NE",81865,400489.27,141105.19
"718",-76.938454333194,38.9100964150433,745,"pow_857","Maranatha Chapel Fellowship","http://maranathachapelfellowship.org/","","4459 DOUGLAS STREET NE",288228,405338.15,138027.02
"719",-76.9364122290407,38.8863623328417,746,"pow_858","Masjid Al-Islam","","","4603 BENNING ROAD SE",19563,405517.1,135392.47
"720",-76.9954960502031,38.857623195884,747,"pow_859","Matthews Memorial Baptist","","CHRISTIAN","2632 MARTIN LUTHER KING JR AVENUE SE",278197,400391.12,132200.3
"721",-77.0300390610679,38.929443696885,748,"pow_860","Mennonite Board Of Mission","","CHRISTIAN","1302 KENYON STREET NW",231338,397395.57,140173.36
"722",-77.0325047770233,38.956699416323,749,"pow_861","Michael's Temple","","","5517 COLORADO AVENUE NW",254853,397182.85,143199.06
"723",-76.9921662928134,38.9004180232614,750,"pow_862","Miracle Temple Of Faith","","CHRISTIAN","1012 H STREET NE",75666,400679.72,136950.87
"724",-77.0186570249127,38.9063475362641,76,"pow_122","Metropolitan Community Church of Wash","http://mccdc.com/","CHRISTIAN","474 RIDGE STREET NW",237490,398381.96,137609.23
"725",-76.988509720558,38.8949264923987,751,"pow_863","Mission Assembly","","CHRISTIAN","400 13TH STREET NE",28525,400996.98,136341.3
"726",-76.9826150631764,38.9087226039557,752,"pow_864","Mission Assembly Church of Jesus Christ","","CHRISTIAN","1736 TRINIDAD AVENUE NE",286460,401508.05,137872.86
"727",-76.9869968132673,38.9369726431414,753,"pow_865","Missionaries Of The Holy APSTL","","CHRISTIAN","1335 QUINCY STREET NE",67019,401127.56,141008.79
"728",-77.0197701674823,38.9159000696927,754,"pow_866","Morning Star Baptist","http://www.morningstarchurch-dc.org/","CHRISTIAN","531 T STREET NW",229840,398285.64,138669.66
"729",-76.93814874462,38.8952601186314,755,"pow_867","Morningstar Pentecostal","","CHRISTIAN","4409 EADS STREET NE",22126,405365.77,136380.09
"730",-77.0128370553256,38.956843669169,756,"pow_868","Mount Calvary Way of the Cross","","CHRISTIAN","129 KENNEDY STREET NW",245867,398887.55,143214.65
"731",-76.9869838923529,38.8782202883871,757,"pow_869","Mount Paran Baptist","","CHRISTIAN","1339 K STREET SE",66727,401129.61,134486.8
"732",-77.035166004629,38.95042375508,758,"pow_870","Mount Top Ministries","","CHRISTIAN","4920 PINEY BRANCH ROAD NW",285029,396951.92,142502.49
"733",-77.0236464053821,38.9153726321525,759,"pow_871","Mt Olivet Tabernacle Baptist","","CHRISTIAN","1851 9TH STREET NW",239901,397949.46,138611.19
"734",-77.0232843834796,38.9098492411777,760,"pow_872","Mt Zion Christian Spiritual","","CHRISTIAN","801 P STREET NW",225971,397980.7,137998.04
"735",-77.0192251340746,38.9074419585931,77,"pow_124","Miles Memorial CME Church","http://www.mmcmechurch.org/","CHRISTIAN","501 N STREET NW",238866,398332.71,137730.73
"736",-76.9342422332222,38.911496539634,761,"pow_873","Muhammads Mosque/Supreme Learning Center","","ISLAM","1615 KENILWORTH AVENUE NE",59671,405703.36,138182.7
"737",-77.0427914966484,38.9107773497923,762,"pow_874","Muslim Community Center","","ISLAM","1520 NEW HAMPSHIRE AVENUE NW",225682,396288.86,138101.68
"738",-77.0442331100793,38.9219723710814,763,"pow_875","N-A","","","1832 BILTMORE STREET NW",235354,396164.43,139344.48
"739",-77.0317496030298,38.9374139734373,764,"pow_876","N-A","","","1358 QUINCY STREET NW",225239,397247.56,141058.18
"740",-77.0641059014905,38.9462307240628,765,"pow_877","National Clergy","","","4411 CONNECTICUT AVENUE NW",284904,394443.01,142038.39
"741",-77.0032057252306,38.8971432516277,766,"pow_878","National Community Church","http://theaterchurch.com/location/barracksrow","CHRISTIAN","205 F STREET NE",52218,399722.11,136587.32
"742",-76.9894334858305,38.8663853846098,767,"pow_879","Nationwide Unity Holy Church Of God","","CHRISTIAN","2021 MARTIN LUTHER KING JR AVENUE SE",52557,400917.21,133173.01
"743",-76.9830493094308,38.8988445568327,768,"pow_880","New Canaan Baptist","","CHRISTIAN","1504 GALES STREET NE",62486,401470.59,136776.31
"744",-77.0299206188746,38.9398901159711,769,"pow_881","New Christ Holy Temple FWB","","CHRISTIAN","4000 13TH STREET NW",284812,397406.22,141333
"745",-77.0237233798563,38.9339380432865,770,"pow_882","New Hope and Deliverance COGIC","","CHRISTIAN","3541 GEORGIA AVENUE NW",284749,397943.32,140672.11
"746",-77.087801647734,38.934967028073,78,"pow_125","Metropolitan Memorial United Methodist","http://www.nationalchurch.org/","CHRISTIAN","3401 NEBRASKA AVENUE NW",298676,392387.68,140789.73
"747",-76.9335082738412,38.9001942443655,771,"pow_883","New Hope Fire Baptist Church","","CHRISTIAN","811 48TH STREET NE",80068,405767.93,136928.1
"748",-76.9795524563421,38.8660794080234,772,"pow_884","New Jerusalem Missionary Baptist","","CHRISTIAN","1736 GOOD HOPE ROAD SE",56735,401774.74,133139.19
"749",-77.0276092407214,38.9569944344491,773,"pow_885","New Jerusalem Spiritual Baptist Church","","CHRISTIAN","5535 ILLINOIS AVENUE NW",254532,397607.18,143231.67
"750",-77.026360676836,38.9470531024712,774,"pow_886","New Light Beulah Baptist Church","","CHRISTIAN","4627 GEORGIA AVENUE NW",252230,397715.08,142128.06
"751",-76.9798686534191,38.9338481844917,775,"pow_887","New Light Missionary Baptist","","CHRISTIAN","3518 18TH STREET NE",156289,401745.64,140662.06
"752",-76.9954502108616,38.8971603230428,776,"pow_888","Church Of The Living God","","CHRISTIAN","715 F STREET NE",77297,400394.88,136589.22
"753",-76.9703046442741,38.8539548777282,777,"pow_889","Church of the Living God","","CHRISTIAN","2478 ALABAMA AVENUE SE",46781,402577.75,131793.5
"754",-76.9889144526939,38.8934040269335,778,"pow_890","Church Of The Lord Jesus Christ","","CHRISTIAN","1235 C STREET NE",70326,400961.89,136172.29
"755",-77.0381555780478,38.9252897563044,779,"pow_891","Church Of The Saviour","","CHRISTIAN","1640 COLUMBIA ROAD NW",235887,396691.61,139712.5
"756",-77.0330088198602,38.9464323650296,780,"pow_892","Community Church Of God","","CHRISTIAN","4604 14TH STREET NW",255537,397138.75,142059.34
"757",-76.981041143947,38.8901171201755,79,"pow_126","Mount Moriah Baptist","http://www.mountmoriahchurch.org/","CHRISTIAN","1636 EAST CAPITOL STREET NE",300671,401644.99,135807.53
"758",-77.001737792877,38.9022484108523,781,"pow_893","Community Holiness","","CHRISTIAN","305 K STREET NE",41326,399849.46,137154.03
"759",-76.9817624100985,38.8926394897183,782,"pow_894","Faith United Missionary Baptist","","CHRISTIAN","217 16TH STREET NE",50894,401582.36,136087.52
"760",-77.0008231605249,38.9159721847828,783,"pow_895","Faith Way Church","","CHRISTIAN","1910 4TH STREET NE",149129,399928.81,138677.48
"761",-76.9898286663262,38.8659301344823,784,"pow_896","Far SE Family Strengthening Coll., Inc.","","","2041 MARTIN LUTHER KING JR AVENUE SE",278056,400882.92,133122.47
"762",-76.9898286663262,38.8659301344823,785,"pow_897","Far Southeast Collaborative Inc.","","","2041 MARTIN LUTHER KING JR AVENUE SE",278056,400882.92,133122.47
"763",-76.9874810746504,38.8808041299705,786,"pow_898","First Angelic Missionary Baptist Church","","CHRISTIAN","1337 PENNSYLVANIA AVENUE SE",66876,401086.43,134773.62
"764",-77.02624106432,38.9436435837178,787,"pow_899","First Hijra Foundation","","","4324 GEORGIA AVENUE NW",252611,397725.34,141749.57
"765",-77.0023371099394,38.9147037906834,788,"pow_900","First New Hope Baptist","","CHRISTIAN","1822 3RD STREET NE",286492,399797.51,138536.68
"766",-76.9399432716904,38.8799987839991,789,"pow_901","First Rock Baptist","","CHRISTIAN","4373 G STREET SE",278495,405211.21,134685.86
"767",-77.0239021931607,38.9395653113514,790,"pow_902","First Seventh Day Adventist","","CHRISTIAN","814 SHEPHERD STREET NW",252535,397927.98,141296.79
"768",-77.0175656848354,38.90547632768,80,"pow_127","Mount Joy Soul Saving Station Pentecostal","","CHRISTIAN","432 M STREET NW",237548,398476.6,137512.5
"769",-76.9875709841594,38.9369741469238,791,"pow_903","Franciscan Mission Service","","","1323 QUINCY STREET NE",67708,401077.78,141008.95
"770",-77.0672955277519,38.9273033006121,792,"pow_904","Free Catholic Church","","CHRISTIAN","3410 GARFIELD STREET NW",221599,394164.96,139937.48
"771",-77.0323609467352,38.9153701831714,793,"pow_905","Free Evangelistic Church","","CHRISTIAN","1840 14TH STREET NW",242887,397193.69,138611.15
"772",-76.9784787843642,38.8698521177112,794,"pow_906","Full Gospel American Zion Church","","CHRISTIAN","1810 MINNESOTA AVENUE SE",55798,401867.82,133558.01
"773",-77.0243198324569,38.9117569972749,795,"pow_907","Full Gospel Christan CTR","","CHRISTIAN","901 RHODE ISLAND AVENUE NW",243262,397890.95,138209.84
"774",-77.071611510121,38.9076842758583,796,"pow_908","Georgetown University/Campus Ministry","","","O STREET NW AND 37TH STREET NW",910786,393789.00997619,137759.88994927
"775",-77.011969542017,38.9127793801751,797,"pow_909","Glorious Church Of Jesus","","CHRISTIAN","85 R STREET NW",226871,398962.1,138323.12
"776",-77.0315283060966,38.957077220104,798,"pow_910","God's Prayer Chapel","","CHRISTIAN","1334 LONGFELLOW STREET NW",254805,397267.5,143240.97
"777",-76.9980802204196,38.8944893249215,799,"pow_911","God's Universal Kingdom","","CHRISTIAN","610 MARYLAND AVENUE NE",4858,400166.74,136292.71
"778",-76.938977439119,38.902552284658,800,"pow_912","Good Success Church","","","4401 SHERIFF ROAD NE",22345,405293.34,137189.53
"779",-77.0368912547995,38.9570893434008,9,"pow_9","Fourth Church of Christ, Scientist","http://christiansciencedc.org/church.php?id=dc-4","CHRISTIAN","5510 16TH STREET NW",255924,396802.67,143242.49
"780",-77.0147690118529,38.915188790116,81,"pow_128","Mt Pleasant Baptist","http://www.mpbcdc.com/","CHRISTIAN","215 RHODE ISLAND AVENUE NW",230001,398719.35,138590.62
"781",-77.019154225439,38.9087192638134,801,"pow_913","Gospel Faith Mission Intl","","CHRISTIAN","1400 5TH STREET NW",238853,398338.89,137872.52
"782",-77.0353907155442,38.9564302221013,802,"pow_914","International Guest House","","","1441 KENNEDY STREET NW",255891,396932.7,143169.27
"783",-77.0051193957517,38.89165024014,803,"pow_915","Islamic Society of North America","","","110 MARYLAND AVENUE NE",297740,399556.07,135977.56
"784",-77.0051193957517,38.89165024014,804,"pow_916","Islamic Society of North America","","ISLAM","110 MARYLAND AVENUE NE",297740,399556.07,135977.56
"785",-76.9900222518489,38.9236049685037,805,"pow_917","Isle Of Patmos Baptist/ CORRECTED ADDRESS","","CHRISTIAN","1200 RHODE ISLAND AVENUE NE",302176,400865.42,139524.83
"786",-76.9793274811702,38.932697909614,806,"pow_918","Jammat Al-Qawiyy","","","3415 18TH STREET NE",34955,401792.59,140534.38
"787",-77.0048993443391,38.9167601339167,807,"pow_919","Jehovah's Witnesses","","CHRISTIAN","1937 SUMMIT PLACE NE",53470,399575.31,138764.96
"788",-77.0073848320509,38.8332769178325,808,"pow_920","Jesus Christ of Power Church","","CHRISTIAN","3855 HALLEY TERRACE SE",29776,399359.01,129497.71
"789",-76.9834449922464,38.8917101662607,809,"pow_921","Jesus Is The Way Evangelist","","CHRISTIAN","127 15TH STREET NE",285999,401436.41,135984.33
"790",-76.9905338924898,38.8317593823815,810,"pow_922","Johenning Baptist","","CHRISTIAN","4025 9TH STREET SE",278471,400822.11,129329.27
"791",-77.0249963056921,38.9028820995767,82,"pow_129","Mount Vernon Place United Methodist","http://www.mvpumc.org/","CHRISTIAN","900 MASSACHUSETTS AVENUE NW",239813,397832.01,137224.67
"792",-77.0046979838114,38.8393043456318,811,"pow_923","Johenning Baptist","","CHRISTIAN","3600 MARTIN LUTHER KING JR AVENUE SE",33075,399592.33,130166.78
"793",-76.9738987239867,38.9249912926836,812,"pow_924","New Memorial Temple Of Christ","","CHRISTIAN","2715 22ND STREET NE",45175,402263.53,139679
"794",-76.9853113627991,38.8830325527556,813,"pow_925","New Morning Star Baptist","http://www.newmorningstarbaptist.org/","CHRISTIAN","1400 E STREET SE",65278,401274.65,135021.02
"795",-76.9838911737029,38.8984500195715,814,"pow_926","New Mount Zion Church Of God","","CHRISTIAN","628 15TH STREET NE",3043,401397.57,136732.5
"796",-76.9645085220488,38.8593410204985,815,"pow_927","New Redeemed Church Of Christ","","CHRISTIAN","2613 30TH STREET SE",45902,403080.62,132391.58
"797",-76.9140352878398,38.8948994817944,816,"pow_928","New Shiloh Missionary","","CHRISTIAN","408 61ST STREET NE",288097,407457.64,136341.75
"798",-76.9352413938378,38.8733092465972,817,"pow_929","New Strait Gate Baptist","","CHRISTIAN","4407 BOWEN ROAD SE",22277,405619.71,133943.55
"799",-77.0218990444836,38.9424024150258,818,"pow_930","New Temple Baptist","","CHRISTIAN","4208 7TH STREET NW",259584,398101.72,141611.69
"800",-77.0102505438384,38.9115119800551,819,"pow_931","New Testament Church In Jesus","","CHRISTIAN","39 FLORIDA AVENUE NW",226687,399111.17,138182.41
"801",-77.0277055377817,38.9560002595238,820,"pow_932","No Greater Love Ministry","","CHRISTIAN","5429 GEORGIA AVENUE NW",285207,397598.8,143121.31
"802",-76.9852217063867,38.9375175243548,83,"pow_130","Franciscan Monastery","http://www.myfranciscan.org/","BUDDHIST","1400 QUINCY STREET NE",289607,401281.45,141069.3
"803",-76.9599158228751,38.9298254296241,821,"pow_933","Northeast Church Of Christ","","CHRISTIAN","3182 BLADENSBURG ROAD NE",287723,403475.8,140216.07
"804",-77.0237711052655,38.9307526962431,822,"pow_934","Northwest Baptist","","CHRISTIAN","3226 GEORGIA AVENUE NW",232967,397939.09,140318.51
"805",-77.0016651275535,38.9303290091164,823,"pow_935","Oblate Vocation Dept","","","391 MICHIGAN AVENUE NE",288033,399855.82,140271.21
"806",-76.9889292769107,38.9130161182749,824,"pow_936","Old Ship of Zion Baptist Mission Church","","CHRISTIAN","1135 OKIE STREET NE",285886,400960.34,138349.39
"807",-77.0204887002903,38.8996223116904,825,"pow_937","On Leong Tong DC Community Church","","CHRISTIAN","606 H STREET NW",238708,398222.92,136862.71
"808",-76.9407495913733,38.9009176390997,826,"pow_938","Right Way Missionary Baptist Church","","CHRISTIAN","4313 NANNIE HELEN BURROUGHS AVENUE NE",301931,405139.74,137007.97
"809",-76.9894897920081,38.8979618635365,827,"pow_939","Righteous Branch Commandment","","CHRISTIAN","1222 MARYLAND AVENUE NE",70999,400911.92,136678.24
"810",-77.030004956146,38.9369206894806,828,"pow_940","Rising Sun Baptist","http://risingsundc.org/","CHRISTIAN","3702 13TH STREET NW",225287,397398.8,141003.37
"811",-77.039554941606,38.9174550201315,829,"pow_941","Sacred Heart Spiritual Church","","CHRISTIAN","1732 SEATON STREET NW",241381,396569.89,138842.83
"812",-76.9755852224315,38.8946032679154,830,"pow_942","Saint Benedict-Moor Convent","","CHRISTIAN","330 21ST STREET NE",307321,402118.19,136305.64
"813",-77.0326028313197,38.9064788813193,84,"pow_131","National City Christian Church","http://www.nationalcitycc.org/","CHRISTIAN","5 THOMAS CIRCLE NW",243014,397172.36,137624.15
"814",-76.9952234002949,38.8928895366675,831,"pow_943","Saint James Episcopal","","CHRISTIAN","222 8TH STREET NE",286737,400414.58,136115.13
"815",-76.9977148878649,38.8990997097068,832,"pow_944","Saint Job Baptist Church","","CHRISTIAN","620 G STREET NE",3889,400198.42,136804.5
"816",-77.0360568307827,38.9412799852427,833,"pow_945","Saints Constantine and Helen","","CHRISTIAN","4115 16TH STREET NW",259140,396874.3,141487.48
"817",-77.0003190783499,38.9000020990971,834,"pow_946","Samuel Church Of Christ","","CHRISTIAN","403 H STREET NE",27727,399972.52,136904.67
"818",-76.9264369884939,38.8981668171916,835,"pow_947","Sargent Memorial Presbyterian Church","","CHRISTIAN","5119 NANNIE HELEN BURROUGHS AVENUE NE",288510,406381.5,136703.51
"819",-76.9485002152009,38.8691370263371,836,"pow_948","SDA Church Community SVC","","CHRISTIAN","3930 ALABAMA AVENUE SE",278451,404469.42,133479.67
"820",-77.0221767766116,38.9130078714429,837,"pow_949","Shaw Community Ministry (United Church)","","CHRISTIAN","1718 7TH STREET NW",218452,398076.85,138348.65
"821",-77.0261242923253,38.9781709083387,838,"pow_950","Shepherd Park Church Of God","","CHRISTIAN","7239 GEORGIA AVENUE NW",254714,397736.56,145582.42
"822",-77.037635177793,38.9323796478634,839,"pow_951","Shrine of the Sacred Heart","","CHRISTIAN","1625 PARK ROAD NW",284056,396737.06,140499.52
"823",-77.0031156039614,38.8423363729667,840,"pow_952","Pathway to Heaven Baptist Church","","CHRISTIAN","3335 MARTIN LUTHER KING JR AVENUE SE",36139,399729.72,130503.35
"824",-77.0809909560238,38.9421175093644,85,"pow_132","National Presbyterian Church","http://www.nationalpres.org/","CHRISTIAN","4101 NEBRASKA AVENUE NW",301930,392978.88,141582.95
"825",-77.021053742944,38.9368908454127,841,"pow_953","Patterson Memorial","","","642 ROCK CREEK CHURCH ROAD NW",252600,398174.86,140999.84
"826",-77.0703625293113,38.9565397102877,842,"pow_954","Peace Community Church","","CHRISTIAN","5103 CONNECTICUT AVENUE NW",262792,393901.52,143183.18
"827",-76.9748782518129,38.9299595031193,843,"pow_955","Pentecostal Glorious Baptist Church","","CHRISTIAN","2102 RHODE ISLAND AVENUE NE",301892,402178.44,140230.49
"828",-77.0243776678468,38.9190441880882,844,"pow_956","Philadelphia Open Door","","CHRISTIAN","935 FLORIDA AVENUE NW",232120,397886.15,139018.78
"829",-76.9653643324734,38.8786075631818,845,"pow_957","Pilgrim Land Baptist","","CHRISTIAN","2928 K STREET SE",147797,403005.53,134530.28
"830",-76.9185698217813,38.8943856500962,846,"pow_958","Plain Truth Baptist","","CHRISTIAN","5713 DIX STREET NE",288710,407064.32,136284.35
"831",-77.0247764272332,38.9422987856748,847,"pow_959","Praise Temple Church Of Christ","","CHRISTIAN","4211 9TH STREET NW",284852,397852.27,141600.25
"832",-76.9834148498773,38.8820384934932,848,"pow_960","Providence Baptist","","CHRISTIAN","526 15TH STREET SE",308993,401439.22,134910.7
"833",-76.9912316150597,38.9432950577464,849,"pow_961","Providence Hospital/Bethesda Baptist","","","1150 VARNUM STREET NE",289609,400760.34,141710.59
"834",-77.0207863591532,38.9561990656306,850,"pow_962","Redeemer Baptist","","CHRISTIAN","528 KENNEDY STREET NW",246774,398198.53,143143.22
"835",-77.0006758471882,38.9333621161832,86,"pow_133","National Shrine of the Immaculate Conception","http://www.nationalshrine.com/","CHRISTIAN","400 MICHIGAN AVENUE NE",291632,399941.6,140607.91
"836",-76.9908225214214,38.9266979502836,851,"pow_963","Redemption Church Of God","","CHRISTIAN","2902 12TH STREET NE",43691,400795.99,139868.17
"837",-76.9717060931018,38.9215205964624,852,"pow_964","Sierra Leone Fellowship","","","2260 25TH PLACE NE",49363,402453.78,139293.78
"838",-77.0747170883911,38.9302542395861,853,"pow_965","Sikh Cultural Society - Sikh Temple","","","3801 MASSACHUSETTS AVENUE NW",222174,393521.7,140265.56
"839",-76.9892433721887,38.9328313945045,854,"pow_966","Sisters Of Holy Child","","CHRISTIAN","1244 MONROE STREET NE",69856,400932.84,140549.05
"840",-77.011584063198,38.9083840682511,855,"pow_967","Soul Savings Center Church Of God","","CHRISTIAN","80 O STREET NW",237039,398995.47,137835.2
"841",-77.0032552653461,38.8965050976513,856,"pow_968","Southern Baptist","","CHRISTIAN","505 2ND STREET NE",14208,399717.81,136516.48
"842",-77.0007425807397,38.9179207777394,857,"pow_969","St Anne Pentecostal","","CHRISTIAN","2028 4TH STREET NE",52432,399935.8,138893.79
"843",-76.9901239570906,38.9328175994231,858,"pow_970","St Anthony's Catholic Convent","","CHRISTIAN","1222 MONROE STREET NE",71002,400856.49,140547.51
"844",-76.9489302883635,38.895831055029,859,"pow_971","St James Baptist","","CHRISTIAN","4024 MINNESOTA AVENUE NE",27638,404430.44,136442.89
"845",-76.9358042149638,38.8991928076357,860,"pow_972","St James Deliverance Church","","CHRISTIAN","4611 NANNIE HELEN BURROUGHS AVENUE NE",155658,405568.85,136816.79
"846",-77.0282292754924,38.9628559605776,87,"pow_134","Nativity Church Rectory and Youth Center","http://www.nativitychurch.net/","CHRISTIAN","6000 GEORGIA AVENUE NW",253197,397553.64,143882.37
"847",-76.9565941358011,38.861530276079,861,"pow_973","St John Christian Methodist","http://www.stjohncmecdc.org/","CHRISTIAN","2301 36TH STREET SE",48975,403767.42,132634.9
"848",-76.9863607302902,38.8934152874311,862,"pow_974","St Mary's AME Zion Chruch","","CHRISTIAN","1339 C STREET NE",66713,401183.43,136173.57
"849",-77.0147300251963,38.8760508624053,863,"pow_975","St Matthew's Lutheran","","CHRISTIAN","222 M STREET SW",277791,398722.03,134246
"850",-77.0323476514352,38.9185976924212,864,"pow_976","St Matthew's Overcoming","","CHRISTIAN","2110 14TH STREET NW",301924,397194.97,138969.43
"851",-77.036039612472,38.9517136541659,865,"pow_977","St Michael's Interdenomination","","CHRISTIAN","5019 16TH STREET NW",255789,396876.25,142645.71
"852",-77.0323379931546,38.9095050391452,866,"pow_978","St Michael's Psychic Science","","CHRISTIAN","1404 P STREET NW",302003,397195.45,137960.07
"853",-76.9862596706983,38.8884533726072,867,"pow_979","St Monica's Episcopal","","CHRISTIAN","1340 MASSACHUSETTS AVENUE SE",66582,401192.28,135622.76
"854",-76.9897584671039,38.9263461772202,868,"pow_980","St Moses-The-Black Orthodox","","CHRISTIAN","1223 GIRARD STREET NE",71042,400888.26,139829.13
"855",-76.983449893453,38.8785309910654,869,"pow_981","Word Of God Baptist","","CHRISTIAN","930 15TH STREET SE",82762,401436.25,134521.34
"856",-77.0258383039666,38.9752894196572,870,"pow_982","Zen Buddhist Center","","BHUDDIST","7004 9TH STREET NW",253852,397761.25,145262.54
"857",-76.9750715494751,38.9431448127572,88,"pow_136","Northeastern Presbyterian","http://www.nepc-dc.org/","CHRISTIAN","2112 VARNUM STREET NE",51647,402161.28,141694.17
"858",-76.9752049150395,38.9291593645413,871,"pow_983","St. Francis de Sales Catholic Church","","","2021 RHODE ISLAND AVENUE NE",295823,402150.14,140141.66
"859",-77.0378045695042,38.9699449096996,872,"pow_984","St. John of Rila Bulgarian Eastern Orthodox","","CHRISTIAN","1629 VAN BUREN STREET NW",256369,396724.1,144669.61
"860",-77.0316981563484,38.96594075797,873,"pow_985","St. John United Baptist Church","","","1348 SHERIDAN STREET NW",257635,397253.12,144224.91
"861",-77.0018501755396,38.8881286030329,874,"pow_986","St. Mark's Episcopal Church","","CHRISTIAN","118 3RD STREET SE",72492,399839.68,135586.62
"862",-76.9600338846791,38.8837966758533,875,"pow_987","Strait Gate Baptist Church","","CHRISTIAN","3236 ELY PLACE SE",37826,403467.8,135106.5
"863",-77.0703928567574,38.9193749611477,876,"pow_988","Tabligh","","","2209 WISCONSIN AVENUE NW",284279,393895.71,139057.57
"864",-76.9881187627154,38.9015445374093,877,"pow_989","Temple Rock Of Ages Assembly of Yahweh","","","1300 I STREET NE",68757,401030.8,137075.96
"865",-76.9921662928134,38.9004180232614,878,"pow_990","Third Sun Spiritual Church INC","","CHRISTIAN","1012 H STREET NE",75666,400679.72,136950.87
"866",-76.916604041935,38.8894812739297,879,"pow_991","True Holiness Church of Christ","","CHRISTIAN","5821 EAST CAPITOL STREET SE",6269,407235.35,135740.08
"867",-77.0209197180077,38.9372907478629,880,"pow_992","True Temple Missionary Baptist Church","","CHRISTIAN","617 ROCK CREEK CHURCH ROAD NW",247811,398186.49,141044.23
"868",-77.0277293438496,38.9836796064954,89,"pow_137","Northminster Presbyterian Church","http://www.nepc-dc.org/","CHRISTIAN","7720 ALASKA AVENUE NW",253620,397597.67,146193.98
"869",-76.9633674832957,38.8791982649568,881,"pow_993","Tyson Temple First Born","","CHRISTIAN","3024 MASSACHUSETTS AVENUE SE",41766,403178.77,134595.92
"870",-77.0428664204978,38.9015348439855,882,"pow_994","Ugandan Catholic Community","","","1875 I STREET NW",279443,396281.88,137075.69
"871",-77.0217251486677,38.9051049345106,883,"pow_995","United House Of Prayer","","CHRISTIAN","1117 7TH STREET NW",278863,398115.81,137471.35
"872",-76.9852885865414,38.9141265348685,884,"pow_996","United House Of Prayer","","CHRISTIAN","1355 OKIE STREET NE",66061,401276.07,138472.7
"873",-77.0022707752275,38.8955483423286,885,"pow_997","Unity Baptist","","CHRISTIAN","424 3RD STREET NE",288143,399803.21,136410.27
"874",-77.0753508685501,38.9636839365104,886,"pow_998","Universal Christian Gnostic","","CHRISTIAN","5520 CONNECTICUT AVENUE NW",285232,393469.81,143976.6
"875",-77.0232136433762,38.9571231270642,887,"pow_999","Universal Meditation Temple","","CHRISTIAN","734 LONGFELLOW STREET NW",250300,397988.17,143245.85
"876",-77.0457795750067,38.9143379350373,888,"pow_1000","Vajrayogini Buddhist Center","","","1803 CONNECTICUT AVENUE NW",242562,396029.9,138497.06
"877",-76.9905787791258,38.9236623976924,889,"pow_1001","Verbrytke Memorial Church","","CHRISTIAN","2600 12TH STREET NE",46145,400817.16,139531.2
"878",-77.019639041568,38.9422009408347,890,"pow_1002","Victory Church Of Jesus Christ","","CHRISTIAN","4201 NEW HAMPSHIRE AVENUE NW",247540,398297.64,141589.28
"879",-76.9360667669903,38.906846091905,90,"pow_139","Holy Trinity Worship Center International","","CHRISTIAN","4628 MINNESOTA AVENUE NE",288254,405545.48,137666.35
"880",-76.971210611359,38.9305768976448,891,"pow_1003","Washington Study SVC Year","","","3116 SOUTH DAKOTA AVENUE NE",40064,402496.43,140299.12
"881",-76.9940108530396,38.8944688283212,892,"pow_1004","Way Of The Cross Church of Christ","","CHRISTIAN","332 9TH STREET NE",36404,400519.76,136290.45
"882",-76.9937580310189,38.8947923957021,893,"pow_1005","Way Of The Cross Ministries","","CHRISTIAN","9TH STREET NE AND D STREET NE",903855,400541.69001446,136326.37001194
"883",-76.9952484147324,38.8946097760865,894,"pow_1006","Wells Water Holy Evangelistic","","CHRISTIAN","342 8TH STREET NE",34877,400412.4,136306.09
"884",-77.0732066587702,38.9588437196602,895,"pow_1007","Wesley Methodist Church Study","","CHRISTIAN","3738 JENIFER STREET NW",264239,393655.21,143439.14
"885",-77.0252618487749,38.9029894220576,896,"pow_1008","Wesley Theological Seminary","","","908 MASSACHUSETTS AVENUE NW",307890,397808.98,137236.59
"886",-77.0252618487749,38.9029894220576,897,"pow_1009","Wesley Theological Seminary","","","908 MASSACHUSETTS AVENUE NW",307890,397808.98,137236.59
"887",-76.9240697506199,38.898909033258,898,"pow_1010","Whosoever Highway Church of Christ","","CHRISTIAN","5329 GAY STREET NE",301912,406586.78,136786.07
"888",-76.9868525992161,38.9071444446603,899,"pow_1011","Whosoever Will Church Of God","","CHRISTIAN","1603 MONTELLO AVENUE NE",60448,401140.54,137697.61
"889",-76.9632539908658,38.8726549786457,900,"pow_1012","William B Stroman","","CHRISTIAN","3027 O STREET SE",41605,403188.91,133869.57
"890",-77.0614546537876,38.9062170152375,10,"pow_11","Fifth Church of Christ, Scientist","http://csgeorgetown.com/","CHRISTIAN","1238 31ST STREET NW",272037,394669.85,137596.37
"891",-77.0262435506489,38.9074708608556,91,"pow_140","New Bethany Baptist","http://www.newbethanybaptistdc.org/","CHRISTIAN","1300 10TH STREET NW",239326,397723.97,137734.09
"892",-76.9978454096052,38.9212197902376,92,"pow_142","Greater Mount Calvary Holy Church","http://www.gmchc.org/cn2008/main.asp","CHRISTIAN","610 RHODE ISLAND AVENUE NE",288779,400187.04,139260.01
"893",-76.9778422095372,38.8476664106371,93,"pow_143","New Image Community Baptist","http://www.newimagecbc.org/","CHRISTIAN","1839 ALABAMA AVENUE SE",54816,401923.66,131095.25
"894",-76.9181903890995,38.8987687674621,94,"pow_144","New Mount Olive Baptist","","CHRISTIAN","710 58TH STREET NE",76820,407096.8,136770.94
"895",-76.991519976078,38.9036841381492,95,"pow_145","New Samaritan Baptist","http://www.newsamaritan.org/","CHRISTIAN","1100 FLORIDA AVENUE NE",285821,400735.75,137313.44
"896",-76.9744974478536,38.9305569418926,96,"pow_146","Evangel Missionary Baptist Church","http://evangelmbc.org/","CHRISTIAN","3200 22ND STREET NE",39025,402211.44,140296.82
"897",-77.0368438617407,38.9468726250274,97,"pow_147","Nineteenth Street Baptist","http://everyblessing.org/","CHRISTIAN","4606 16TH STREET NW",258718,396806.32,142108.34
"898",-77.0312155570436,38.8999835151817,98,"pow_148","New York Ave Presbyterian","http://www.nyapc.org/","CHRISTIAN","1313 NEW YORK AVENUE NW",279043,397292.44,136903.07
"899",-77.0686485253803,38.924898733621,99,"pow_149","St Nicholas Cathedral","http://www.stnicholasdc.org/","CHRISTIAN","3500 MASSACHUSETTS AVENUE NW",284693,394047.44,139670.64
"900",-77.0239458432907,38.9276935278024,100,"pow_151","Old Pentecost","http://www.churchangel.com/church/Old-Pentecost-Church-40732.htm","CHRISTIAN","727 HOBART PLACE NW",285391,397923.85,139978.92
